id,name,town,county,lat,long,description,website,category,sensitivity
375,Wimpole Estate,Royston,Cambridgeshire,52.1400038,-0.0488461,"A living working estate, guided by the seasons with an impressive mansion, parkland, gardens and rare breed farm.",https://www.nationaltrust.org.uk/visit/cambridgeshire/wimpole-estate,Historic houses/mansions,3
163,Hatfield Forest,Bishop's Stortford,Essex,51.8592,0.2363,Ancient royal hunting forest,https://www.nationaltrust.org.uk/visit/essex-bedfordshire-hertfordshire/hatfield-forest,Forests/Woodlands,5
294,Shaw's Corner,near Welwyn,Hertfordshire,51.836215,-0.26844,Country home of playwright Bernard Shaw for 44 years,https://www.nationaltrust.org.uk/visit/essex-bedfordshire-hertfordshire/shaws-corner,Historic houses/mansions,3
373,Willington Dovecote and Stables,near Bedford,Bedfordshire,52.137501,-0.3808,Outstanding 16th-century stone dovecote and stable building,https://www.nationaltrust.org.uk/visit/essex-bedfordshire-hertfordshire/willington-dovecote-and-stables,Historic houses/mansions,3
9,"Anglesey Abbey, Gardens and Lode Mill",Cambridge,Cambridgeshire,52.235915,0.2448,Jacobean-style house with gardens and watermill,https://www.nationaltrust.org.uk/visit/cambridgeshire/anglesey-abbey-gardens-and-lode-mill,Mills,3
6212,Moleskin and Markham Hills,near Streatley,Bedfordshire,51.94473,-0.44615,"Wildlife-rich chalk grassland, beech woodland and meadows managed as a nature reserve.",https://www.nationaltrust.org.uk/visit/essex-bedfordshire-hertfordshire/moleskin-and-markham-hills,Forests/Woodlands,5
5306,Sharpenhoe and Sundon Hills,Streatley,Bedfordshire,51.95354,-0.450765,Ancient woodland and chalk escarpment with fantastic views,https://www.nationaltrust.org.uk/visit/essex-bedfordshire-hertfordshire/sharpenhoe,Forests/Woodlands,5
6193,Morven Park,Potters Bar,Hertfordshire,51.700131,-0.174226,20 acres of peaceful parkland located in the heart of Potters Bar,https://www.nationaltrust.org.uk/visit/essex-bedfordshire-hertfordshire/morven-park,Parks and open spaces,3
177,Houghton Mill and Waterclose Meadows,near Huntingdon,Cambridgeshire,52.3311,-0.1204,Impressive working 18th-century watermill and campsite,https://www.nationaltrust.org.uk/visit/cambridgeshire/houghton-mill-and-waterclose-meadows,Mills,3
118,Dunstable Downs and Whipsnade Estate,Dunstable,Bedfordshire,51.865538,-0.537432,Spectacular views of rolling chalk grasslands and a seemingly endless sky in an Area of Outstanding Natural Beauty,https://www.nationaltrust.org.uk/visit/essex-bedfordshire-hertfordshire/dunstable-downs-and-whipsnade-estate,Historic houses/mansions,3
370,Wicken Fen National Nature Reserve,Ely,Cambridgeshire,52.3101,0.29291,"The National Trust's oldest nature reserve, and England's most famous fen",https://www.nationaltrust.org.uk/visit/cambridgeshire/wicken-fen-national-nature-reserve,Nature reserves,5
365,Whipsnade Tree Cathedral,Dunstable,Bedfordshire,51.851636,-0.5358892,"Trees, hedges and shrubs planted in the form of a medieval cathedral",https://www.nationaltrust.org.uk/visit/essex-bedfordshire-hertfordshire/whipsnade-tree-cathedral,Churches,4
17,Ashridge Estate,Near Berkhamsted,Hertfordshire,51.805599,-0.58542,"Ancient trees, rolling chalk downlands and lush meadows in an area of outstanding natural beauty",https://www.nationaltrust.org.uk/visit/essex-bedfordshire-hertfordshire/ashridge-estate,Historic houses/mansions,3
262,Pitstone Windmill,Ivinghoe,Buckinghamshire,51.831402,-0.62699, A rare and striking example of an early form of post mill,https://www.nationaltrust.org.uk/visit/oxfordshire-buckinghamshire-berkshire/pitstone-windmill,Mills,3
257,Paycocke's House and Garden,Colchester,Essex,51.87075,0.68338,A stunning Tudor merchant's house whose walls have more than a few stories to tell,https://www.nationaltrust.org.uk/visit/essex-bedfordshire-hertfordshire/paycockes-house-and-garden,Historic houses/mansions,3
86,Grange Barn,Colchester,Essex,51.869099,0.68332,13th-century monastic barn,https://www.nationaltrust.org.uk/visit/essex-bedfordshire-hertfordshire/grange-barn,Historic houses/mansions,3
14,Ascott,Wing near Leighton Buzzard,Buckinghamshire,51.902019,-0.700372,"Discover Ascott, where a historic home meets superb art collections, natural and formal gardens, and views across the Aylesbury Vale.",https://www.nationaltrust.org.uk/visit/oxfordshire-buckinghamshire-berkshire/ascott,Historic landscaped gardens,4
275,Ramsey Abbey Gatehouse,Huntingdon,Cambridgeshire,52.448502,-0.0997,Remains of a former Benedictine abbey,https://www.nationaltrust.org.uk/visit/cambridgeshire/ramsey-abbey-gatehouse,Castles,4
324,Sutton House and Breaker's Yard,Hackney,London,51.548,-0.04921,A fascinating Tudor house at the heart of a vibrant community,https://www.nationaltrust.org.uk/visit/london/sutton-house-and-breakers-yard,Historic houses/mansions,3
374,2 Willow Road,Hampstead,London,51.557499,-0.16861,Innovative and influential Modernist home from 1939,https://www.nationaltrust.org.uk/visit/london/2-willow-road,Pubs,2
129,Fenton House and Garden,Hampstead,London,51.558773,-0.180926,Handsome 17th-century house with unusual collections and picturesque walled gardens,https://www.nationaltrust.org.uk/visit/london/fenton-house-and-garden,Kitchen gardens,3
224,Melford Hall,Sudbury,Suffolk,52.0844,0.7281,"An eclectic home, with stories of naval exploits and Beatrix Potter set in picturesque gardens.",https://www.nationaltrust.org.uk/visit/suffolk/melford-hall,Historic houses/mansions,3
5326,Danbury Commons and Blakes Wood,Danbury,Essex,51.710061,0.576404,Explore Essex's second largest area of common land ,https://www.nationaltrust.org.uk/visit/essex-bedfordshire-hertfordshire/danbury-commons-and-blakes-wood,Historic houses/mansions,3
182,Ickworth Estate,Bury St Edmunds,Suffolk,52.220965,0.65704863,An Italianate Palace in the heart of Suffolk,https://www.nationaltrust.org.uk/visit/suffolk/ickworth-estate,Historic houses/mansions,3
121,Eastbury Manor House,Barking,Essex,51.534894,0.099462,"A striking Elizabethan gentry house with a remarkable history, set in tranquil heritage gardens",https://www.nationaltrust.org.uk/visit/london/eastbury-manor-house,Historic houses/mansions,3
274,Rainham Hall,Havering,London,51.521696,0.193162,"An elegant Georgian House with a diverse history, peaceful garden and changing exhibitions to explore.",https://www.nationaltrust.org.uk/visit/london/rainham-hall,Historic houses/mansions,3
139,George Inn,Southwark,London,51.503799,-0.08904,Last remaining galleried inn in London,https://www.nationaltrust.org.uk/visit/london/george-inn,Pubs,2
328,Theatre Royal Bury St Edmunds,Bury St Edmunds,Suffolk,52.24063,0.716911,The only surviving Regency playhouse in Britain,https://www.nationaltrust.org.uk/visit/suffolk/theatre-royal-bury-st-edmunds,Historic houses/mansions,3
196,Lavenham Guildhall,Sudbury,Suffolk,52.10876,0.79662,One of the most spectacular timber framed buildings of medieval England at the heart of village life,https://www.nationaltrust.org.uk/visit/suffolk/lavenham-guildhall,Historic houses/mansions,3
5330,Northey Island,Maldon,Essex,51.718012,0.702822,The closest you'll get to true wilderness in Essex,https://www.nationaltrust.org.uk/visit/essex-bedfordshire-hertfordshire/northey-island,Castles,4
64,Carlyle's House,Chelsea,London,51.484326,-0.170021,The Chelsea home of a Victorian literary couple,https://www.nationaltrust.org.uk/visit/london/carlyles-house,Castles,4
186,King's Head,Aylesbury,Buckinghamshire,51.8164723,-0.8135919,Historic ancient coaching inn in the heart of Aylesbury,https://www.nationaltrust.org.uk/visit/oxfordshire-buckinghamshire-berkshire/kings-head,Pubs,2
6131,Chilterns Countryside,High Wycombe,Buckinghamshire,51.751671,-0.771511,"Rolling hills, distant views, chalk grassland, and acres of woodland to explore",https://www.nationaltrust.org.uk/visit/oxfordshire-buckinghamshire-berkshire/chilterns-countryside,Forests/Woodlands,5
4504,575 Wandsworth Road,London,London,51.46979,-0.140628,An extraordinary home and work of art,https://www.nationaltrust.org.uk/visit/london/575-wandsworth-road,Historic houses/mansions,3
2503,Red House,Bexleyheath,London,51.455623,0.13025478,Iconic Arts and Crafts home of William and Jane Morris and the centre of the Pre-Raphaelite circle.,https://www.nationaltrust.org.uk/visit/london/red-house,Historic houses/mansions,3
251,Osterley Park and House,Isleworth,Middlesex,51.489498,-0.35289,A Georgian country estate in west London,https://www.nationaltrust.org.uk/visit/london/osterley-park-and-house,Historic houses/mansions,3
276,Rayleigh Mount,Rayleigh,Essex,51.587898,0.60605,"The site of a medieval castle, now a green oasis for wildlife ",https://www.nationaltrust.org.uk/visit/essex-bedfordshire-hertfordshire/rayleigh-mount,Castles,4
5327,Copt Hall Marshes,Little Wigborough,Essex,51.795619,0.869801,Explore the beautiful Blackwater Estuary,https://www.nationaltrust.org.uk/visit/essex-bedfordshire-hertfordshire/copt-hall-marshes,Historic houses/mansions,3
216,Lyveden,near Oundle,Northamptonshire,52.4623,-0.5582,Intriguing Elizabethan lodge and moated garden,https://www.nationaltrust.org.uk/visit/leicestershire-northamptonshire/lyveden,Historic houses/mansions,3
39,Bourne Mill,Colchester,Essex,51.875999,0.91378,Picturesque watermill with working waterwheel.,https://www.nationaltrust.org.uk/visit/essex-bedfordshire-hertfordshire/bourne-mill,Mills,3
181,Hughenden,High Wycombe,Buckinghamshire,51.650214,-0.7565552,Country home of the Victorian statesman Benjamin Disraeli,https://www.nationaltrust.org.uk/visit/oxfordshire-buckinghamshire-berkshire/hughenden,Historic houses/mansions,3
159,Ham House and Garden,Richmond,Surrey,51.443199,-0.31505,A unique 17th-century treasure trove ,https://www.nationaltrust.org.uk/visit/london/ham-house-and-garden,Castles,4
349,Waddesdon,near Aylesbury,Buckinghamshire,51.845406,-0.925868,"French Renaissance-style château with an extensive art collection, landscaped gardens, aviary and woodland playground. ",https://www.nationaltrust.org.uk/visit/oxfordshire-buckinghamshire-berkshire/waddesdon,Historic landscaped gardens,4
81,Claydon,near Buckingham,Buckinghamshire,51.924599,-0.95617,Splendid eighteenth-century English interiors in an idyllic country setting,https://www.nationaltrust.org.uk/visit/oxfordshire-buckinghamshire-berkshire/claydon-house,Historic houses/mansions,3
900024,Ray Island,,,51.7946014,0.90696331,A tiny island making a big difference to the wildlife of Essex,https://www.nationaltrust.org.uk/visit/essex-bedfordshire-hertfordshire/ray-island,Historic houses/mansions,3
109,Dorneywood Garden,Burnham,Buckinghamshire,51.5546,-0.64688,"1930s-style garden, with herbaceous borders, cottage garden and lily pond",https://www.nationaltrust.org.uk/visit/oxfordshire-buckinghamshire-berkshire/dorneywood-garden,Cottages,2
6074,Petts Wood and Hawkwood,Chislehurst,Kent,51.398808,0.082993,An oasis of peace and tranquillity only 13 miles south-east from the centre of London. Pedestrian access to Petts Wood and Hawkwood through the Hazlemere Road underpass. ,https://www.nationaltrust.org.uk/visit/kent/petts-wood-and-hawkwood,Forests/Woodlands,5
56,Buckingham Chantry Chapel,Buckingham,Buckinghamshire,52.000999,-0.98665,"The oldest building in Buckingham, restored by Gilbert Scott in 1875",https://www.nationaltrust.org.uk/visit/oxfordshire-buckinghamshire-berkshire/buckingham-chantry-chapel,Shops,2
287,St. John's Jerusalem,Dartford,Kent,51.4095,0.24053,Tranquil garden and 13th-century chapel,https://www.nationaltrust.org.uk/visit/kent/st-johns-jerusalem,Churches,4
229,Morden Hall Park,Morden,London,51.400611,-0.188722,A green oasis in the city at the heart of the community. ,https://www.nationaltrust.org.uk/visit/london/morden-hall-park,Historic houses/mansions,3
360,"West Wycombe Park, Village and Hill",West Wycombe,Buckinghamshire,51.641701,-0.80065,The elegant Palladian home of the Dashwood family and historic village,https://www.nationaltrust.org.uk/visit/oxfordshire-buckinghamshire-berkshire/west-wycombe-park-village-and-hill,Forests/Woodlands,5
82,Cliveden,Maidenhead,Buckinghamshire,51.556596,-0.681394,Glorious gardens and woodlands overlooking the River Thames,https://www.nationaltrust.org.uk/visit/oxfordshire-buckinghamshire-berkshire/cliveden,Forests/Woodlands,5
318,Stowe Gardens,Buckingham,Buckinghamshire,52.022154,-1.00785,Gardening on the grandest scale in this Georgian landscape garden and park,https://www.nationaltrust.org.uk/visit/oxfordshire-buckinghamshire-berkshire/stowe-gardens,Parks and open spaces,3
6119,Maidenhead and Cookham Commons,Maidenhead,Berkshire,51.559538,-0.714663,An historic landscape full of natural beauty,https://www.nationaltrust.org.uk/visit/oxfordshire-buckinghamshire-berkshire/maidenhead-and-cookham-commons,Historic houses/mansions,3
131,Flatford,East Bergholt,Suffolk,51.957802,1.0261,"Discover the views that John Constable painted in the hamlet of Flatford, set within the Dedham Vale countryside",https://www.nationaltrust.org.uk/visit/suffolk/flatford,Historic houses/mansions,3
210,Long Crendon Courthouse,Aylesbury,Buckinghamshire,51.775002,-0.98567,Medieval courthouse situated in an idyllic English village,https://www.nationaltrust.org.uk/visit/oxfordshire-buckinghamshire-berkshire/long-crendon-courthouse,Historic houses/mansions,3
253,Owletts,Gravesend,Kent,51.39313,0.391894,Family home of the renowned architect Sir Herbert Baker,https://www.nationaltrust.org.uk/visit/kent/owletts,Historic houses/mansions,3
284,Runnymede and Ankerwycke,near Old Windsor,Surrey,51.44799,-0.566896,"The birthplace of the Magna Carta. History, art and nature on the banks of the River Thames. ",https://www.nationaltrust.org.uk/visit/surrey/runnymede-and-ankerwycke,Historic houses/mansions,3
2593,Cobham Wood and Mausoleum,,Kent,51.38846,0.433238,"Restored 18th-century mausoleum, set in peaceful wood pasture",https://www.nationaltrust.org.uk/visit/kent/cobham-wood-and-mausoleum,Forests/Woodlands,5
258,Peckover House and Garden,Wisbech,Cambridgeshire,52.665487,0.154538,Elegant Georgian town house with wonderful walled garden,https://www.nationaltrust.org.uk/visit/cambridgeshire/peckover-house-and-garden,Kitchen gardens,3
254,Oxburgh Estate,near Swaffham,Norfolk,52.581215,0.5702691,"Home to the Bedingfeld family for 500 years, Oxburgh reveals one family's unshakable Catholic faith and story of endurance",https://www.nationaltrust.org.uk/visit/norfolk/oxburgh-estate,Historic houses/mansions,3
179,The Homewood,Esher,Surrey,51.356013,-0.381423,One architect's vision of the future,https://www.nationaltrust.org.uk/visit/surrey/the-homewood,Historic houses/mansions,3
80,Claremont Landscape Garden,Esher,Surrey,51.355785,-0.381433,This grade 1 listed garden created by the great landscape designers of the 18th century charts the evolution of the English Landscape Garden ,https://www.nationaltrust.org.uk/visit/surrey/claremont-landscape-garden,Historic houses/mansions,3
40,Boarstall Duck Decoy,near Bicester,Buckinghamshire,51.828999,-1.09014,A rare survival of a seventeenth-century duck decoy ,https://www.nationaltrust.org.uk/visit/oxfordshire-buckinghamshire-berkshire/boarstall-duck-decoy,Historic houses/mansions,3
41,Boarstall Tower,near Bicester,Buckinghamshire,51.821301,-1.09333,Fourteenth-century moated gatehouse and beautiful gardens,https://www.nationaltrust.org.uk/visit/oxfordshire-buckinghamshire-berkshire/boarstall-tower,Historic houses/mansions,3
267,"Priest's House, Easton on the Hill",near Stamford,Northamptonshire,52.629364,-0.5095124,Small pre-Reformation stone building,https://www.nationaltrust.org.uk/visit/leicestershire-northamptonshire/priests-house-easton-on-the-hill,Castles,4
6067,Coldrum Long Barrow,West Malling,Kent,51.32197,0.36661,Stunning views from the top of the barrow,https://www.nationaltrust.org.uk/visit/kent/coldrum-long-barrow,Castles,4
62,Canons Ashby,near Daventry,Northamptonshire,52.149502,-1.16034,"A tranquil Tudor manor house set in rare terraced gardens, with the 'antient' Dryden family at its heart",https://www.nationaltrust.org.uk/visit/leicestershire-northamptonshire/canons-ashby,Historic houses/mansions,3
273,Quebec House,Westerham,Kent,51.268002,0.07833,"Childhood home of General James Wolfe, victor of the Battle of Quebec (1759)",https://www.nationaltrust.org.uk/visit/kent/quebec-house,Castles,4
6071,Oldbury Hill,Ightham,Kent,51.2788,0.26221,Discover the remains of an Iron Age hill fort,https://www.nationaltrust.org.uk/visit/kent/oldbury-hill,Moors/Hills,4
193,Knole,Sevenoaks,Kent,51.267601,0.20122,Be part of a 400 year history of visiting Knole,https://www.nationaltrust.org.uk/visit/kent/knole,Historic houses/mansions,3
90003,The Royal Oak Foundation Conservation Studio,Sevenoaks,Kent,51.26717,0.19741,Conserving and preserving our history for the future.,https://www.nationaltrust.org.uk/visit/kent/the-royal-oak-foundation-conservation-studio,Historic houses/mansions,3
154,Greys Court,Henley-on-Thames,Oxfordshire,51.5452,-0.95151,"A family home, delightful gardens and an idyllic setting",https://www.nationaltrust.org.uk/visit/oxfordshire-buckinghamshire-berkshire/greys-court,Historic houses/mansions,3
6194,Pin Mill,near Chelmondiston,Suffolk,51.996323,1.213511,Enjoy a wander around Pin Mill and escape from it all,https://www.nationaltrust.org.uk/visit/suffolk/pin-mill,Mills,3
6123,Bookham Commons,Great Bookham,Surrey,51.289827,-0.3804575,"Ancient commons, mentioned in the Domesday Book, with grassland plains, mighty oak woods and serene ponds",https://www.nationaltrust.org.uk/visit/surrey/bookham-commons,Forests/Woodlands,5
6127,Limpsfield Common,Oxted,Surrey,51.250685,0.042615,Ancient common on the Greensand Ridge where time comes home to sleep,https://www.nationaltrust.org.uk/visit/surrey/limpsfield-common,Castles,4
123,Emmetts Garden,Sevenoaks,Kent,51.250599,0.11573,Interesting hillside garden with year-round features,https://www.nationaltrust.org.uk/visit/kent/emmetts-garden,Moors/Hills,4
6075,Toys Hill,,Kent,51.248285,0.101976,Discover the place that inspired Octavia Hill to found the National Trust,https://www.nationaltrust.org.uk/visit/kent/toys-hill,Moors/Hills,4
4521,Nuffield Place,near Henley-on-Thames,Oxfordshire,51.585772,-1.02099,The beloved home of one of the most prolific philanthropists of the 20th century,https://www.nationaltrust.org.uk/visit/oxfordshire-buckinghamshire-berkshire/nuffield-place,Castles,4
72,Chartwell,Westerham,Kent,51.2459,0.083513,Family home and garden of Sir Winston Churchill,https://www.nationaltrust.org.uk/visit/kent/chartwell,Churches,4
5445,Reigate Hill and Gatton Park,Reigate,Surrey,51.25422,-0.200137,A spectacular escarpment with sweeping views across the Weald,https://www.nationaltrust.org.uk/visit/surrey/reigate-hill-and-gatton-park,Historic houses/mansions,3
6122,Headley Heath,Headley Heath,Surrey,51.26353606,-0.28147465,"A wonderful mix of open heathland, woodland and chalk downland",https://www.nationaltrust.org.uk/visit/surrey/headley-heath,Forests/Woodlands,5
6072,One Tree Hill,Sevenoaks,Kent,51.256654,0.232781,A beautiful slice of Kent countryside,https://www.nationaltrust.org.uk/visit/kent/one-tree-hill,Castles,4
183,Ightham Mote,Sevenoaks,Kent,51.258598,0.27088,"Outstanding 14th-century moated manor house, gardens and estate",https://www.nationaltrust.org.uk/visit/kent/ightham-mote,Historic houses/mansions,3
247,Old Soar Manor,Borough Green,Kent,51.263076,0.31999716,Remains of a late 13th-century knight's dwelling,https://www.nationaltrust.org.uk/visit/kent/old-soar-manor,Historic houses/mansions,3
265,Polesden Lacey,near Dorking,Surrey,51.261002,-0.36886,"A 1,600-acre estate with elegant gardens, Edwardian house and plenty of room to play",https://www.nationaltrust.org.uk/visit/surrey/polesden-lacey,Historic houses/mansions,3
44,Box Hill,Tadworth,Surrey,51.248901,-0.3101,So much to explore,https://www.nationaltrust.org.uk/visit/surrey/box-hill,Historic houses/mansions,3
5371,Denbies Hillside,near Dorking,Surrey,51.240398,-0.361131,Dramatic and stunning chalk escarpment with panoramic views,https://www.nationaltrust.org.uk/visit/surrey/denbies-hillside,Castles,4
286,St George's Guildhall,King's Lynn,Norfolk,52.755553,0.39351784,Rare large medieval guildhall,https://www.nationaltrust.org.uk/visit/norfolk/st-georges-guildhall,Historic houses/mansions,3
6121,Harewoods,Redhill,Surrey,51.20469344,-0.09928361,"Hidden woodlands, lush green meadows, tranquil ponds and an ancient common",https://www.nationaltrust.org.uk/visit/surrey/harewoods,Forests/Woodlands,5
162,Hatchlands Park,Guildford,Surrey,51.253544,-0.4776021,Stretches of sweeping parkland sheltering a classic country house,https://www.nationaltrust.org.uk/visit/surrey/hatchlands-park,Parks and open spaces,3
6211,Kyson Hill,Woodbridge,Suffolk,52.080922,1.309956,Escape from it all at Kyson Hill,https://www.nationaltrust.org.uk/visit/suffolk/kyson-hill,Moors/Hills,4
79,Clandon Park,Guildford,Surrey,51.252169,-0.505899,Conserving and caring for a great house laid bare,https://www.nationaltrust.org.uk/visit/surrey/clandon-park,Historic houses/mansions,3
5361,Chiddingstone Village,near Edenbridge,Kent,51.185947,0.1464504,One of the most beautiful and oldest villages in Kent,https://www.nationaltrust.org.uk/visit/kent/chiddingstone-village,Castles,4
900049,Simon's Wood and Finchampstead Ridges,Wokingham,Berkshire,51.364469,-0.8439893,"One of the National Trust’s oldest acquisitions, the Ridges and Wood are a paradise for wildlife. ",https://www.nationaltrust.org.uk/visit/surrey/simons-wood-and-finchampstead-ridges,Forests/Woodlands,5
6125,Holmwood Common,Holmwood,Surrey,51.20124286,-0.32673614,Ancient common once owned by King Harold and William the Conqueror,https://www.nationaltrust.org.uk/visit/surrey/holmwood-common,Historic houses/mansions,3
6120,Abinger Roughs and Netley Park,Abinger Hammer,Surrey,51.22138228,-0.43698789,"Hidden woods with ancient trees and flower-sprinkled grasslands, just off the North Downs and Pilgrims Ways",https://www.nationaltrust.org.uk/visit/surrey/abinger-roughs-and-netley-park,Forests/Woodlands,5
315,Stoneacre,Maidstone,Kent,51.2533,0.58178,Medieval yeoman's house and garden,https://www.nationaltrust.org.uk/visit/kent/stoneacre,Historic houses/mansions,3
323,Sutton Hoo,Woodbridge,Suffolk,52.095652,1.349691,Awe-inspiring Anglo-Saxon royal burial site,https://www.nationaltrust.org.uk/visit/suffolk/sutton-hoo,Historic houses/mansions,3
279,River Wey and Godalming Navigations and Dapdune Wharf,Guildford,Surrey,51.2421,-0.57808,Tranquil waterway running for nearly 20 miles through the heart of Surrey,https://www.nationaltrust.org.uk/visit/surrey/river-wey-and-godalming-navigations-and-dapdune-wharf,Historic houses/mansions,3
125,Farnborough Hall,near Banbury,Warwickshire,52.136902,-1.36541,Honey-coloured stone house with exquisite plasterwork and fine landscaped garden,https://www.nationaltrust.org.uk/visit/warwickshire/farnborough-hall,Historic landscaped gardens,4
23,Basildon Park,Reading,Berkshire,51.4995,-1.11858,An estate saved from almost certain demolition and lovingly revived ,https://www.nationaltrust.org.uk/visit/oxfordshire-buckinghamshire-berkshire/basildon-park,Historic houses/mansions,3
200,Leith Hill,Dorking,Surrey,51.176899,-0.37276,"Come and explore the trails through woodland, heathland and farmland, all with exceptional views.",https://www.nationaltrust.org.uk/visit/surrey/leith-hill,Forests/Woodlands,5
293,Shalford Mill,near Guildford,Surrey,51.2192,-0.56645,18th-century watermill with well-preserved machinery,https://www.nationaltrust.org.uk/visit/surrey/shalford-mill,Mills,3
381,Woolsthorpe Manor,Grantham,Lincolnshire,52.80876,-0.62985,Isaac Newton changed the world here,https://www.nationaltrust.org.uk/visit/nottinghamshire-lincolnshire/woolsthorpe-manor,Historic houses/mansions,3
311,Standen House and Garden,East Grinstead,West Sussex,51.103506,-0.01664,"Arts and Crafts family home with Morris & Co. interiors, set in a beautiful hillside garden",https://www.nationaltrust.org.uk/visit/sussex/standen-house-and-garden,Moors/Hills,4
271,Priory Cottage,Abingdon,Oxfordshire,51.620098,-1.32658,"Former monastic buildings, now converted into two houses",https://www.nationaltrust.org.uk/visit/oxfordshire-buckinghamshire-berkshire/priory-cottage,Historic houses/mansions,3
358,West Green House Garden,Hartley Wintney,Hampshire,51.3027,-0.9343,Celebrated garden with an intriguing collection of follies,https://www.nationaltrust.org.uk/visit/hampshire/west-green-house-garden,Castles,4
346,Upton House and Gardens,near Banbury,Warwickshire,52.1109,-1.46744,Lord and Lady Bearsted’s 1930s country retreat with dramatic terraced gardens and world-renowned art collection. ,https://www.nationaltrust.org.uk/visit/warwickshire/upton-house-and-gardens,Historic houses/mansions,3
378,Winkworth Arboretum,Godalming,Surrey,51.1614,-0.58113,A landscape arboretum reflecting the colours of each changing season,https://www.nationaltrust.org.uk/visit/surrey/winkworth-arboretum,Historic houses/mansions,3
6126,Hydon's Ball and Heath,Godalming,Surrey,51.152508,-0.6014,Memorial to Octavia Hill overlooking the Surrey Hills Area of Outstanding Natural Beauty,https://www.nationaltrust.org.uk/visit/surrey/hydons-ball-and-heath,Moors/Hills,4
6210,Darrow Wood,Harleston,Norfolk,52.455557,1.33221613,Discover this hidden historical site in the midst of surrounding farmland ,https://www.nationaltrust.org.uk/visit/norfolk/darrow-wood,Farmland,3
350,Wakehurst,Haywards Heath,West Sussex,51.064999,-0.08934,"Wild botanic garden, managed by Kew and home to the Millennium Seed Bank",https://www.nationaltrust.org.uk/visit/sussex/wakehurst,Mills,3
5351,Witley and Milford Commons,Witley,Surrey,51.155602,-0.66853,A rich and varied landscape buzzing with wildlife,https://www.nationaltrust.org.uk/visit/surrey/witley-and-milford-commons,Castles,4
291,Scotney Castle,Tunbridge Wells,Kent,51.092783,0.408198,"Ruined medieval castle. Victorian mansion house. Rolling parkland. Ancient woodland. Picturesque garden. With romance, drama and nature around every corner, Scotney is truly a castle for all seasons.",https://www.nationaltrust.org.uk/visit/kent/scotney-castle,Historic houses/mansions,3
244,Oakhurst Cottage,near Godalming,Surrey,51.132801,-0.62291,"Timber-framed home offering a rare insight into domestic life in the mid-19th century, with garden to explore",https://www.nationaltrust.org.uk/visit/surrey/oakhurst-cottage,Historic houses/mansions,3
299,Sissinghurst Castle Garden,near Cranbrook,Kent,51.11576,0.58287,"Historic, poetic, iconic: a refuge dedicated to beauty. Vita Sackville-West and Harold Nicolson fell in love with Sissinghurst Castle and created a world-renowned garden. ",https://www.nationaltrust.org.uk/visit/kent/sissinghurst-castle-garden,Castles,4
243,Nymans,near Haywards Heath,West Sussex,51.05228,-0.1993913," A garden lovers' home for all seasons, with an extensive yet intimate garden set around a romantic house and ruins. ",https://www.nationaltrust.org.uk/visit/sussex/nymans,Archaeological sites/ruins,5
249,Orford Ness National Nature Reserve,Orford,Suffolk,52.087399,1.54772,"Internationally important coastal nature reserve, with a fascinating 20th-century military history",https://www.nationaltrust.org.uk/visit/suffolk/orford-ness-national-nature-reserve,Coastline,5
6124,Frensham Little Pond,Frensham,Surrey,51.16990143,-0.77272665,Medieval bishops' fish pond in tranquil wildlife haven amidst precious heathland,https://www.nationaltrust.org.uk/visit/surrey/frensham-little-pond,Shops,2
348,The Vyne,Basingstoke,Hampshire,51.313783,-1.08401,"Explore a former Tudor powerhouse turned 17th-century family home, set in gardens, woodlands and wetlands. ",https://www.nationaltrust.org.uk/visit/hampshire/the-vyne,Forests/Woodlands,5
106,Hindhead Commons and the Devil's Punch Bowl,Hindhead,Surrey,51.113998,-0.72858,Spectacular views and walks in the Surrey Hills countryside,https://www.nationaltrust.org.uk/visit/surrey/hindhead-commons-and-the-devils-punch-bowl,Moors/Hills,4
295,Sheffield Park and Garden,Uckfield,East Sussex,51.0,0.0094,"Acres of Grade I listed landscaped garden and lakes, surrounded by historic parkland and woodland ",https://www.nationaltrust.org.uk/visit/sussex/sheffield-park-and-garden,Historic landscaped gardens,4
73,Chastleton,near Moreton-in-Marsh,Oxfordshire,51.960098,-1.63895,"Discover the myths and memories of an ancient country house, a compelling time capsule of 400 years of family life",https://www.nationaltrust.org.uk/visit/oxfordshire-buckinghamshire-berkshire/chastleton,Historic houses/mansions,3
6063,Swan Barn Farm,Woolbeding,West Sussex,51.087323,-0.703522,A quiet retreat of woodland and pasture only 30 seconds from Haslemere High Street,https://www.nationaltrust.org.uk/visit/surrey/swan-barn-farm,Forests/Woodlands,5
6158,Ludshott Commons,Nr Headley Down,Hampshire,51.1084,-0.77936,One of the largest remaining areas of heathland in east Hampshire,https://www.nationaltrust.org.uk/visit/hampshire/ludshott-commons,Castles,4
27,Belton Estate,Grantham,Lincolnshire,52.94313,-0.62015,Exploration and relaxation for the whole family,https://www.nationaltrust.org.uk/visit/nottinghamshire-lincolnshire/belton-estate,Historic houses/mansions,3
71,Charlecote Park,Warwick,Warwickshire,52.205101,-1.62103,A Victorian home set in landscaped deer park,https://www.nationaltrust.org.uk/visit/warwickshire/charlecote-park,Parks and open spaces,3
6055,Black Down,Woolbeding,West Sussex,51.0700074,-0.6873412,The highest point in the South Downs National Park,https://www.nationaltrust.org.uk/visit/sussex/black-down,Parks and open spaces,3
117,Dunwich Heath and Beach,Dunwich,Suffolk,52.25889,1.626715,A precious landscape on the Suffolk coast,https://www.nationaltrust.org.uk/visit/suffolk/dunwich-heath-and-beach,Coastline,5
6061,Marley Common,Woolbeding,West Sussex,51.073106,-0.7356069,"Coconut-scents, purple heather and intimate woodland walks",https://www.nationaltrust.org.uk/visit/sussex/marley-common,Forests/Woodlands,5
24,Bateman's,Burwash,East Sussex,50.987701,0.37695,"Jacobean house, home of Rudyard Kipling",https://www.nationaltrust.org.uk/visit/sussex/batemans,Historic houses/mansions,3
344,Ulverscroft Nature Reserve,near Loughborough,Leicestershire,52.701401,-1.27259,Reserve in the care of the Leicestershire and Rutland Wildlife Trust,https://www.nationaltrust.org.uk/visit/leicestershire-northamptonshire/ulverscroft-nature-reserve,Historic houses/mansions,3
6140,Stoneywell,,Leicestershire,52.7034271,-1.2706485,The home of a family who lived and loved the Arts and Crafts ,https://www.nationaltrust.org.uk/visit/leicestershire-northamptonshire/stoneywell,Castles,4
46,Brancaster Estate,Brancaster,Norfolk,52.9669,0.66877,Iconic coastline famous for its sandy beaches,https://www.nationaltrust.org.uk/visit/norfolk/brancaster-estate,Coastline,5
302,Smallhythe Place,Tenterden,Kent,51.0383,0.70182,Ellen Terry's early 16th-century house and cottage gardens,https://www.nationaltrust.org.uk/visit/kent/smallhythe-place,Cottages,2
42,Bodiam Castle,near Robertsbridge,East Sussex,51.000099,0.54741,Archetypal 14th century moated castle with ruined interior - a glimpse of medieval splendour,https://www.nationaltrust.org.uk/visit/sussex/bodiam-castle,Castles,4
290,Sandham Memorial Chapel,near Newbury,Hampshire,51.344799,-1.33691,World famous chapel containing Stanley Spencer's visionary paintings,https://www.nationaltrust.org.uk/visit/hampshire/sandham-memorial-chapel,Churches,4
5147,White Horse Hill,Uffington,Oxfordshire,51.577465,-1.567032,"Ancient rolling downland, home to an enigmatic chalk hill figure",https://www.nationaltrust.org.uk/visit/oxfordshire-buckinghamshire-berkshire/white-horse-hill,Moors/Hills,4
6207,The Chase,Woolton Hill,Hampshire,51.364727,-1.3671876,Quiet nature reserve with a surprising array of habitats,https://www.nationaltrust.org.uk/visit/hampshire/the-chase,Nature reserves,5
151,Great Coxwell Barn,Faringdon,Oxfordshire,51.642799,-1.61404,13th-century stone barn,https://www.nationaltrust.org.uk/visit/oxfordshire-buckinghamshire-berkshire/great-coxwell-barn,Historic houses/mansions,3
6199,Badbury,near Swindon,Oxfordshire,51.6505,-1.6227,Woodland with an Iron Age past  ,https://www.nationaltrust.org.uk/visit/oxfordshire-buckinghamshire-berkshire/badbury,Forests/Woodlands,5
59,Buscot Park,Faringdon,Oxfordshire,51.6703,-1.64498,"Late 18th-century house, set in enchanting landscaped grounds",https://www.nationaltrust.org.uk/visit/oxfordshire-buckinghamshire-berkshire/buscot-park,Castles,4
172,Hidcote,near Chipping Campden,Gloucestershire,52.084,-1.74364,Arts and Crafts-inspired garden with intricately designed outdoor spaces in the rolling Cotswold hills.,https://www.nationaltrust.org.uk/visit/gloucestershire-cotswolds/hidcote,Moors/Hills,4
58,Buscot Old Parsonage,Faringdon,Oxfordshire,51.679798,-1.66544,Early 18th-century riverside house with small garden,https://www.nationaltrust.org.uk/visit/oxfordshire-buckinghamshire-berkshire/buscot-old-parsonage,Castles,4
900018,Buscot Village,Faringdon,Oxfordshire,51.676879,-1.6673895,"A sleepy, ancient village on the banks of the River Thames. ",https://www.nationaltrust.org.uk/visit/oxfordshire-buckinghamshire-berkshire/buscot-village,Historic houses/mansions,3
6157,Selborne Common,Selborne,Hampshire,51.096107,-0.951764,Discover the magnificent beech woods and flower-filled meadows that inspired Gilbert White,https://www.nationaltrust.org.uk/visit/hampshire/selborne-common,Forests/Woodlands,5
4507,The Textile Conservation Studio,,Norfolk,52.80089,1.191523,The Studio provides a complete conservation service for historic textiles conserving and protecting the National Trust's precious and often unique textile collections.,https://www.nationaltrust.org.uk/visit/norfolk/the-textile-conservation-studio,Historic houses/mansions,3
260,Petworth,Petworth,West Sussex,50.986099,-0.61281,"A magnificent Treasure House displaying one of the finest art collections in the care of the National Trust, nestled in a 700-acre deer park",https://www.nationaltrust.org.uk/visit/sussex/petworth,Parks and open spaces,3
900017,Coleshill Village and Parkland,Nr Swindon,Oxfordshire,51.640307,-1.660506,"A perfect English village surrounded by a patchwork of fields, woodland spinneys, water meadow and parkland. ",https://www.nationaltrust.org.uk/visit/oxfordshire-buckinghamshire-berkshire/coleshill-village-parkland,Pubs,2
2575,Buscot and Coleshill Estates,near Swindon,Wiltshire,51.640444,-1.660634,Villages and countryside criss-crossed with trails,https://www.nationaltrust.org.uk/visit/oxfordshire-buckinghamshire-berkshire/buscot-and-coleshill-estates,Trails/Footpaths,2
900041,Heritage and Rural Skills Centre,Swindon,Wiltshire,51.640616,-1.660824,"A centre to champion skills from the past, fit for the future, for everyone for ever.",https://www.nationaltrust.org.uk/visit/oxfordshire-buckinghamshire-berkshire/heritage-and-rural-skills-centre,Historic houses/mansions,3
15,Ashdown,Lambourn,Berkshire,51.535999,-1.59116,Unusual Dutch-style house on the Berkshire Downs,https://www.nationaltrust.org.uk/visit/oxfordshire-buckinghamshire-berkshire/ashdown,Historic houses/mansions,3
4550,Market Hall,Chipping Campden,Gloucestershire,52.050686,-1.780686,Outstanding 400-year-old Cotswold market hall,https://www.nationaltrust.org.uk/visit/gloucestershire-cotswolds/market-hall,Historic houses/mansions,3
6065,Ditchling Beacon,,East Sussex,50.90084,-0.105186,Panoramic views from the top of world,https://www.nationaltrust.org.uk/visit/sussex/ditchling-beacon,Castles,4
21,Baddesley Clinton,Baddesley Clinton,Warwickshire,52.343832,-1.7084634,"Discover a secluded, intimate estate set in the heart of the Forest of Arden with 500 years of fascinating and unexpected stories",https://www.nationaltrust.org.uk/visit/warwickshire/baddesley-clinton,Historic houses/mansions,3
6054,Blackcap,Lewes,East Sussex,50.895237,-0.04667,A classic downland experience with secret woodland glades,https://www.nationaltrust.org.uk/visit/sussex/blackcap,Forests/Woodlands,5
35,Blickling Estate,Aylsham,Norfolk,52.812,1.23139,One day is never enough. Discover a complete Norfolk estate with something for everyone.,https://www.nationaltrust.org.uk/visit/norfolk/blickling-estate,Historic houses/mansions,3
326,Tattershall Castle,Tattershall,Lincolnshire,53.101002,-0.19063,Magnificent 15th century red brick castle - what wealth and power looks like,https://www.nationaltrust.org.uk/visit/nottinghamshire-lincolnshire/tattershall-castle,Castles,4
5389,Woolbeding Gardens,Midhurst,West Sussex,50.9973848,-0.7579017,"A horticultural haven bursting with colourful planting, a contemporary glasshouse and countryside views  ",https://www.nationaltrust.org.uk/visit/sussex/woolbeding-gardens,Castles,4
5095,Dover's Hill,,Gloucestershire,52.053722,-1.803076,"A natural amphitheatre on a spur of the Cotswolds, with views over the Vale of Evesham",https://www.nationaltrust.org.uk/visit/gloucestershire-cotswolds/dovers-hill,Castles,4
6064,Woolbeding Countryside,Woolbeding,West Sussex,50.9890827,-0.7559299,Experience a landscape shaped by traditional rural life,https://www.nationaltrust.org.uk/visit/sussex/woolbeding-countryside,Historic houses/mansions,3
6060,Lavington Common,Woolbeding,West Sussex,50.9601325,-0.6503195,A rare pocket of open heath amongst plantation woodland,https://www.nationaltrust.org.uk/visit/sussex/lavington-common,Forests/Woodlands,5
5253,Saddlescombe Farm and Newtimber Hill,near Brighton,West Sussex,50.888979,-0.1943217,A hidden hamlet nestled in the downs,https://www.nationaltrust.org.uk/visit/sussex/saddlescombe-farm-and-newtimber-hill,Castles,4
212,Lodge Park and Sherborne Park Estate,near Cheltenham,Gloucestershire,51.8069,-1.79225,"England's only surviving 17th-century grandstand, within a tranquil Cotswold estate full of diverse wildlife",https://www.nationaltrust.org.uk/visit/gloucestershire-cotswolds/lodge-park-and-sherborne-park-estate,Historic houses/mansions,3
5204,Devil's Dyke,Nr Brighton,West Sussex,50.8845954,-0.2123548,A legendary beauty spot on the South Downs,https://www.nationaltrust.org.uk/visit/sussex/devils-dyke,Castles,4
255,Packwood House,Lapworth,Warwickshire,52.3465,-1.74551,"Much-restored Tudor house, park and garden with notable topiary",https://www.nationaltrust.org.uk/visit/warwickshire/packwood-house,Parks and open spaces,3
900012,Morston Quay,Morston,Norfolk,52.956741,0.98656,Explore the Norfolk Coast from Morston Quay,https://www.nationaltrust.org.uk/visit/norfolk/morston-quay,Coastline,5
33,Blakeney National Nature Reserve,Cley Road,Norfolk,52.957752,0.985829,Spectacular wildlife and uninterrupted views of beautiful coastline,https://www.nationaltrust.org.uk/visit/norfolk/blakeney-national-nature-reserve,Coastline,5
6110,"The Coombes, Hinton Parva",,Wiltshire,51.540943,-1.672638,Rare wildflowers and a myriad of butterflies,https://www.nationaltrust.org.uk/visit/wiltshire/the-coombes-hinton-parva,Historic houses/mansions,3
195,Lamb House,Rye,East Sussex,50.949699,0.73426,Celebrating 300 years of history and literary connections in a stunning Georgian house,https://www.nationaltrust.org.uk/visit/sussex/lamb-house,Castles,4
303,Snowshill Manor and Garden,near Broadway,Gloucestershire,52.006093,-1.861509,"Snowshill is the unconventional home of the eccentric Charles Wade, who delighted in creating a stage for his life and passions.",https://www.nationaltrust.org.uk/visit/gloucestershire-cotswolds/snowshill-manor-and-garden,Moors/Hills,4
132,The Fleece Inn,near Evesham,Worcestershire,52.090099,-1.86567,A traditional English pub,https://www.nationaltrust.org.uk/visit/worcestershire-herefordshire/the-fleece-inn,Pubs,2
5059,Bibury,,Gloucestershire,51.759018,-1.833845,A row of tenanted 17th-century weavers' cottages and water meadow set in the Cotswold village of Bibury,https://www.nationaltrust.org.uk/visit/gloucestershire-cotswolds/bibury,Cottages,2
188,Kinwarton Dovecote,near Alcester,Warwickshire,52.2232,-1.8495,Circular 14th-century dovecote,https://www.nationaltrust.org.uk/visit/warwickshire/kinwarton-dovecote,Historic houses/mansions,3
227,Monk's House,Lewes,East Sussex,50.8396,0.01917,Leonard and Virginia Woolf's 17th-century country retreat,https://www.nationaltrust.org.uk/visit/sussex/monks-house,Historic houses/mansions,3
6056,Cissbury Ring,Near Findon,West Sussex,50.86014,-0.37932,The most historic hill on the South Downs,https://www.nationaltrust.org.uk/visit/sussex/cissbury-ring,Moors/Hills,4
225,Middle Littleton Tithe Barn,Evesham,Worcestershire,52.1213,-1.88429,"13th-century tithe barn, one of the largest and finest in the country",https://www.nationaltrust.org.uk/visit/worcestershire-herefordshire/middle-littleton-tithe-barn,Historic houses/mansions,3
657,Gunby Estate: Monksthorpe Chapel,near Spilsby,Lincolnshire,53.164902,0.16874,Remote late 17th-century Baptist chapel,https://www.nationaltrust.org.uk/visit/nottinghamshire-lincolnshire/gunby-hall-estate-monksthorpe-chapel,Churches,4
296,Sheringham Park,Upper Sheringham,Norfolk,52.9240788,1.1814163,Landscape park and woodland garden with miles of stunning coastal views,https://www.nationaltrust.org.uk/visit/norfolk/sheringham-park,Forests/Woodlands,5
312,Staunton Harold Church,Ashby-de-la-Zouch,Leicestershire,52.783401,-1.43658,"Imposing church built in 1653, with fine panelled interior",https://www.nationaltrust.org.uk/visit/peak-district-derbyshire/staunton-harold-church,Churches,4
6059,Harting Down,Woolbeding,West Sussex,50.9565598,-0.875635,"Dramatic hill-top views and secluded valleys, with abundant wild flowers",https://www.nationaltrust.org.uk/visit/sussex/harting-down,Moors/Hills,4
90,Coughton Court,Alcester,Warwickshire,52.242802,-1.87794,Coughton Court is an imposing Tudor house set in beautiful gardens with a collection of Catholic treasures,https://www.nationaltrust.org.uk/visit/warwickshire/coughton-court,Castles,4
155,"Gunby Estate, Hall and Gardens",Spilsby,Lincolnshire,53.178001,0.19669,A homely country house dated 1700 set in Victorian walled gardens at the foot of the Lincolnshire Wolds,https://www.nationaltrust.org.uk/visit/nottinghamshire-lincolnshire/gunby-estate-hall-and-gardens,Kitchen gardens,3
345,Uppark House and Garden,Petersfield,West Sussex,50.952702,-0.88896,A tranquil 17th-century house set within intimate gardens and woodland.,https://www.nationaltrust.org.uk/visit/sussex/uppark-house-and-garden,Forests/Woodlands,5
6057,Drovers Estate,Singleton,West Sussex,50.9111971,-0.7571577,"Nestled in undulating hills, step back to a timeless rural life",https://www.nationaltrust.org.uk/visit/sussex/drovers-estate,Moors/Hills,4
158,Hailes Abbey,Cheltenham,Gloucestershire,51.9702,-1.92724,13th-century Cistercian abbey,https://www.nationaltrust.org.uk/visit/gloucestershire-cotswolds/hailes-abbey,Historic houses/mansions,3
127,"Felbrigg Hall, Gardens and Estate",Norwich,Norfolk,52.907469,1.25942499,Truly a hidden gem,https://www.nationaltrust.org.uk/visit/norfolk/felbrigg-hall-gardens-and-estate,Historic houses/mansions,3
900020,Staunton Harold,Melbourne,Derbyshire,52.81089,-1.43062,"Countryside space with wildflower meadows, woodland walks and open water",https://www.nationaltrust.org.uk/visit/peak-district-derbyshire/staunton-harold,Forests/Woodlands,5
175,Hinton Ampner,near Alresford,Hampshire,51.044591,-1.151521,Elegant country house with highly distinctive gardens,https://www.nationaltrust.org.uk/visit/hampshire/hinton-ampner,Historic houses/mansions,3
6118,West Runton and Beeston Regis Heath,West Runton,Norfolk,52.92557,1.247689,"Woods, heaths and the best coastal views",https://www.nationaltrust.org.uk/visit/norfolk/west-runton-and-beeston-regis-heath,Forests/Woodlands,5
6,Alfriston Clergy House,Polegate,East Sussex,50.80616,0.15777,The first building saved forever for the nation by the National Trust ,https://www.nationaltrust.org.uk/visit/sussex/alfriston-clergy-house,Historic houses/mansions,3
74,Chedworth Roman Villa,near Cheltenham,Gloucestershire,51.819401,-1.92295,Cradled in a beautiful Cotswold valley rest the remains of one of the grandest Roman villas in Britain,https://www.nationaltrust.org.uk/visit/gloucestershire-cotswolds/chedworth-roman-villa,Castles,4
367,The White Cliffs of Dover,Dover,Kent,51.132046,1.337537,Magnificent coastal site overlooking the English Channel,https://www.nationaltrust.org.uk/visit/kent/the-white-cliffs-of-dover,Coastline,5
305,South Foreland Lighthouse,Dover,Kent,51.13152,1.338825,Striking and historical lighthouse high on The White Cliffs of Dover,https://www.nationaltrust.org.uk/visit/kent/south-foreland-lighthouse,Coastline,5
6062,Slindon Estate,near Arundel,West Sussex,50.8608835,-0.6364376,A great and ancient downland estate,https://www.nationaltrust.org.uk/visit/sussex/slindon-estate,Historic houses/mansions,3
61,Calke Abbey,Derby,Derbyshire,52.808253,-1.472834,The un-stately home and country estate,https://www.nationaltrust.org.uk/visit/peak-district-derbyshire/calke-abbey,Historic houses/mansions,3
5432,Cuckmere Valley,,East Sussex,50.78974,0.139652,Flower-rich chalk grassland with stunning views of the Cuckmere River,https://www.nationaltrust.org.uk/visit/sussex/cuckmere-valley,Castles,4
122,Elizabethan House Museum,Great Yarmouth,Norfolk,52.605,1.72721,Delightful treasury of 16th-century domestic history,https://www.nationaltrust.org.uk/visit/norfolk/elizabethan-house-museum,Castles,4
656,The Workhouse and Infirmary,Southwell,Nottinghamshire,53.0795,-0.93981,Atmospheric Victorian workhouse,https://www.nationaltrust.org.uk/visit/nottinghamshire-lincolnshire/the-workhouse-and-infirmary,Castles,4
6280,Foremark,,Derbyshire,52.8209,-1.5062,"Nature reserve with woodland walks, grass heathland and open water",https://www.nationaltrust.org.uk/visit/peak-district-derbyshire/foremark,Forests/Woodlands,5
377,Winchester City Mill,Winchester,Hampshire,51.062,-1.30771,"Free to enter Ancient watermill, café with island garden and wildlife spot in the heart of Winchester",https://www.nationaltrust.org.uk/visit/hampshire/winchester-city-mill,Mills,3
176,Horsey Windpump,Great Yarmouth,Norfolk,52.74247,1.638635,An iconic Norfolk Broads landmark,https://www.nationaltrust.org.uk/visit/norfolk/horsey-windpump,Historic houses/mansions,3
2506,Birmingham Back to Backs,Birmingham,West Midlands,52.473999,-1.8963,Experience 200 years of working people's lives in the heart of Birmingham. ,https://www.nationaltrust.org.uk/visit/birmingham-west-midlands/birmingham-back-to-backs,Historic houses/mansions,3
6106,Lockeridge Dene and Piggledene,Near Marlborough,Wiltshire,51.404998,-1.795089,"Streams of lichen-rich sarsen stones litter the landscape and provide a safe environment for many species of plants, insects and birds.",https://www.nationaltrust.org.uk/visit/wiltshire/lockeridge-dene-and-piggledene,Castles,4
5125,Birling Gap and the Seven Sisters,near Eastbourne,East Sussex,50.742905,0.201166,"A popular coastal hub, where the South Downs meet the sea",https://www.nationaltrust.org.uk/visit/sussex/birling-gap-and-the-seven-sisters,Coastline,5
900015,Stockbridge Down,near Stockbridge,Hampshire,51.115549,-1.4567553,"Chalk downland with far-reaching views, a variety of wildlife and archaeological features",https://www.nationaltrust.org.uk/visit/hampshire/stockbridge-down,Castles,4
6247,The Roundhouse,Birmingham,West Midlands,52.478946,-1.918828,"Through a partnership between the National Trust and Canal & River Trust, the Roundhouse in Birmingham has been revived as a hub for city tours.",https://www.nationaltrust.org.uk/visit/birmingham-west-midlands/roundhouse,Historic houses/mansions,3
19,Avebury,Marlborough,Wiltshire,51.427502,-1.85611,"Ancient stone circle, museum and manor house in the heart of the Avebury World Heritage Site. NOTE: Avebury Manor is currently closed for restoration work. ",https://www.nationaltrust.org.uk/visit/wiltshire/avebury,Historic houses/mansions,3
900016,Stockbridge Marsh,Stockbridge,Hampshire,51.105655,-1.4954359,A rich wetland habitat just moments from Stockbridge High Street,https://www.nationaltrust.org.uk/visit/hampshire/stockbridge-marsh,Castles,4
47,Bredon Barn,near Tewkesbury,Worcestershire,52.030201,-2.11954,Large medieval threshing barn,https://www.nationaltrust.org.uk/visit/gloucestershire-cotswolds/bredon-barn,Castles,4
4515,Crickley Hill,Birdlip,Gloucestershire,51.847053,-2.103022,"Distinctive landmark rich in wildlife and archaeology with a tremendous panorama, jointly owned with Gloucestershire Wildlife Trust",https://www.nationaltrust.org.uk/visit/gloucestershire-cotswolds/crickley-hill,Castles,4
160,Hanbury Hall,Droitwich Spa,Worcestershire,52.275398,-2.08633,"William and Mary-style country house, garden and park",https://www.nationaltrust.org.uk/visit/worcestershire-herefordshire/hanbury-hall,Parks and open spaces,3
900011,Sandilands,Mablethorpe,Lincolnshire,53.298127,0.294369,A new haven for nature on Lincolnshire's wild coast,https://www.nationaltrust.org.uk/visit/nottinghamshire-lincolnshire/sandilands,Coastline,5
351,Letocetum Roman Baths and Museum,near Lichfield,Staffordshire,52.657001,-1.85605,"Excavated Roman bathhouse, other remains and museum",https://www.nationaltrust.org.uk/visit/shropshire-staffordshire/letocetum-roman-baths-and-museum,Castles,4
6103,Calstone and Cherhill Downs,,Wiltshire,51.42359,-1.935232,"Cherhill Down, with a chalk white horse, Iron Age hillfort and obelisk has breath-taking views over the wildlife haven of Calstone coombes.",https://www.nationaltrust.org.uk/visit/wiltshire/calstone-and-cherhill-downs,Moors/Hills,4
101,Croome,Worcester,Worcestershire,52.105154,-2.1662722,"Expect the unexpected. Incredible innovation, devastating loss, remarkable survival and magnificent restoration all in one place.",https://www.nationaltrust.org.uk/visit/worcestershire-herefordshire/croome,Pubs,2
2588,Rosedene,near Bromsgrove,Worcestershire,52.354698,-2.10304,Mid 19th-century Chartist cottage,https://www.nationaltrust.org.uk/visit/worcestershire-herefordshire/rosedene,Cottages,2
185,Kedleston Hall,Derby,Derbyshire,52.9585,-1.53348,"18th-century mansion with Adam interiors, colonial history and vast parkland",https://www.nationaltrust.org.uk/visit/peak-district-derbyshire/kedleston-hall,Historic houses/mansions,3
6058,East Head,Chichester,West Sussex,50.78114,-0.903841,"Shifting sand dunes, salt marsh and flowing tides ",https://www.nationaltrust.org.uk/visit/sussex/east-head,Historic houses/mansions,3
4508,Duffield Castle,Duffield,Derbyshire,52.9925,-1.4892,The remains of one of England's largest castles,https://www.nationaltrust.org.uk/visit/peak-district-derbyshire/duffield-castle,Castles,4
5233,Clent Hills,near Romsley,Worcestershire,52.424823,-2.092195,A stunning countryside haven in the heart of the busy Midlands,https://www.nationaltrust.org.uk/visit/worcestershire-herefordshire/clent-hills,Historic houses/mansions,3
232,Mottisfont,near Romsey,Hampshire,51.0400105,-1.5331765,A romantic house and gallery set in beautiful riverside gardens,https://www.nationaltrust.org.uk/visit/hampshire/mottisfont,Historic houses/mansions,3
900014,Curbridge Nature Reserve,,Hampshire,50.895322,-1.2626901,Ancient and newly-planted woodland adjacent to the river Hamble,https://www.nationaltrust.org.uk/visit/hampshire/curbridge-nature-reserve,Forests/Woodlands,5
153,Greyfriars House and Garden,Worcester,Worcestershire,52.190455,-2.21898,"Late medieval merchant's house, rescued from demolition, in Worcester city centre",https://www.nationaltrust.org.uk/visit/worcestershire-herefordshire/greyfriars-house-and-garden,Historic houses/mansions,3
6108,Sutton Lane Meadows,Chippenham,Wiltshire,51.497764,-2.078461,Traditional hay meadows rich in wild flowers,https://www.nationaltrust.org.uk/visit/wiltshire/sutton-lane-meadows,Castles,4
164,Hawford Dovecote,Hawford,Worcestershire,52.242401,-2.22556,16th-century half-timbered dovecote,https://www.nationaltrust.org.uk/visit/worcestershire-herefordshire/hawford-dovecote,Historic houses/mansions,3
321,The Children’s Country House at Sudbury,Ashbourne,Derbyshire,52.886299,-1.76674,The Children’s Country House at Sudbury. Having fun with history.,https://www.nationaltrust.org.uk/visit/peak-district-derbyshire/the-childrens-country-house-at-sudbury,Historic houses/mansions,3
5107,Minchinhampton and Rodborough Commons,,Gloucestershire,51.707547,-2.211243,Rolling hills and open spaces above the Stroud Valleys and Severn estuary,https://www.nationaltrust.org.uk/visit/gloucestershire-cotswolds/minchinhampton-and-rodborough-commons,Moors/Hills,4
16,Ashleworth Tithe Barn,Ashleworth,Gloucestershire,51.924198,-2.26572,15th-century tithe barn,https://www.nationaltrust.org.uk/visit/gloucestershire-cotswolds/ashleworth-tithe-barn,Castles,4
6111,Figsbury Ring,North-east of Salisbury,Wiltshire,51.103196,-1.732867,"Neolithic and Iron Age site rich in wildlife, offering sweeping views of surrounding countryside",https://www.nationaltrust.org.uk/visit/wiltshire/figsbury-ring,Castles,4
316,Stonehenge Landscape,near Amesbury,Wiltshire,51.177601,-1.82776,A World Heritage Site famous for its ancient ceremonial landscape of great archaeological interest.,https://www.nationaltrust.org.uk/visit/wiltshire/stonehenge-landscape,Castles,4
161,Hardwick,Chesterfield,Derbyshire,53.167801,-1.30813,An Elizabethan masterpiece,https://www.nationaltrust.org.uk/visit/peak-district-derbyshire/hardwick,Historic houses/mansions,3
5091,Haresfield Beacon and Standish Wood,Stroud,Gloucestershire,51.7784,-2.26233,A superb Cotswold landscape of mixed woodland and open grassland with extensive views,https://www.nationaltrust.org.uk/visit/gloucestershire-cotswolds/haresfield-beacon-and-standish-wood,Forests/Woodlands,5
6248,The Firs,Lower Broadheath,Worcestershire,52.1989833,-2.2834974,Birthplace of Sir Edward Elgar,https://www.nationaltrust.org.uk/visit/worcestershire-herefordshire/the-firs,Historic houses/mansions,3
83,Clumber Park,Worksop,Nottinghamshire,53.269905,-1.072069,Freedom to discover,https://www.nationaltrust.org.uk/visit/nottinghamshire-lincolnshire/clumber-park,Historic houses/mansions,3
310,Hardwick Estate: Stainsby Mill,Chesterfield,Derbyshire,53.183275,-1.31952,Explore Stainsby Mill,https://www.nationaltrust.org.uk/visit/peak-district-derbyshire/hardwick-estate-stainsby-mill,Mills,3
90001,Foxbury,Romsey,Hampshire,50.957814,-1.575196,"A blooming landscape of heathland restoration, open for special events which help people connect to nature",https://www.nationaltrust.org.uk/visit/hampshire/foxbury,Castles,4
383,Woodchester Park,near Nailsworth,Gloucestershire,51.70473,-2.271464,Beautiful secluded wooded valley,https://www.nationaltrust.org.uk/visit/gloucestershire-cotswolds/woodchester-park,Forests/Woodlands,5
231,Moseley Old Hall,Wolverhampton,Staffordshire,52.635101,-2.10463,An atmospheric Elizabethan farmhouse that saved a King,https://www.nationaltrust.org.uk/visit/shropshire-staffordshire/moseley-old-hall,Farmland,3
197,Lacock,near Chippenham,Wiltshire,51.414799,-2.11941,"Country house with monastic roots, once home to William Henry Fox Talbot, inventor of the photographic negative",https://www.nationaltrust.org.uk/visit/wiltshire/lacock,Castles,4
6107,Pepperbox Hill,Salisbury,Wiltshire,51.022227,-1.698016,Chalk ridge landmark with far-reaching views and rich natural heritage,https://www.nationaltrust.org.uk/visit/wiltshire/pepperbox-hill,Castles,4
369,Wichenford Dovecote,Wichenford,Worcestershire,52.236801,-2.31302,17th-century half-timbered dovecote,https://www.nationaltrust.org.uk/visit/worcestershire-herefordshire/wichenford-dovecote,Historic houses/mansions,3
6112,White Barrow,Tilshead,Wiltshire,51.220798,-1.9543,Well preserved Neolithic long barrow,https://www.nationaltrust.org.uk/visit/wiltshire/white-barrow,Historic houses/mansions,3
187,Kinver Edge and the Rock Houses,"Kinver, near Stourbridge",Staffordshire,52.450109,-2.242739,High sandstone ridge and hill fort overlooking dramatic red sandstone rock houses,https://www.nationaltrust.org.uk/visit/shropshire-staffordshire/kinver-edge-and-the-rock-houses,Moors/Hills,4
2367,Herefordshire Countryside,near Leominster,Herefordshire,52.0353,-2.3505,Discover the 7 countryside places cared for by the National Trust in Herefordshire.,https://www.nationaltrust.org.uk/visit/worcestershire-herefordshire/herefordshire-countryside,Historic houses/mansions,3
226,Mompesson House,Salisbury,Wiltshire,51.0662,-1.79679,Homely and welcoming 18th-century townhouse in the heart of Salisbury's Cathedral Close ,https://www.nationaltrust.org.uk/visit/wiltshire/mompesson-house,Churches,4
371,Wightwick Manor and Gardens,Wolverhampton,West Midlands,52.58214,-2.195,"Paint, Politics and Pre-Raphaelite Artists",https://www.nationaltrust.org.uk/visit/birmingham-west-midlands/wightwick-manor-and-gardens,Historic houses/mansions,3
297,Shugborough Estate,near Stafford,Staffordshire,52.789294,-2.033064,"A Staffordshire paradise: a rich blend of landscape, monuments, gardens and architecture, shaped by exploration and global encounters.",https://www.nationaltrust.org.uk/visit/shropshire-staffordshire/shugborough-estate,Historic houses/mansions,3
6006,St Helens Duver,St Helens,Isle of Wight,50.698751,-1.0995964,Sand dunes with a royal history and great coastal views,https://www.nationaltrust.org.uk/visit/isle-of-wight/st-helens-duver,Coastline,5
239,Newark Park,Wotton-under-Edge,Gloucestershire,51.638802,-2.31369,"A secluded estate with glorious views, providing country house hospitality, garden strolls and woodland walks",https://www.nationaltrust.org.uk/visit/gloucestershire-cotswolds/newark-park,Historic houses/mansions,3
245,The Old Manor,Ashbourne,Derbyshire,52.978401,-1.81594,"A Low, stone-built medieval hall, set in the picturesque countryside of Derbyshire. ",https://www.nationaltrust.org.uk/visit/peak-district-derbyshire/the-old-manor,Historic houses/mansions,3
319,Mr Straw's House,Worksop,Nottinghamshire,53.315041,-1.115445,"An Ordinary house, an extraordinary home",https://www.nationaltrust.org.uk/visit/nottinghamshire-lincolnshire/mr-straws-house,Historic houses/mansions,3
28,Bembridge Windmill,Bembridge,Isle of Wight,50.684213,-1.0943815,The only surviving windmill on the Isle of Wight,https://www.nationaltrust.org.uk/visit/isle-of-wight/bembridge-windmill,Mills,3
4529,Knowles Mill,Bewdley,Worcestershire,52.386007,-2.351114,Preserved derelict mill on the Dowles Brook in the Wyre Forest,https://www.nationaltrust.org.uk/visit/worcestershire-herefordshire/knowles-mill,Mills,3
363,Westbury Court Garden,Westbury-on-Severn,Gloucestershire,51.822172,-2.410684,Dutch water garden - a rare and beautiful survival,https://www.nationaltrust.org.uk/visit/gloucestershire-cotswolds/westbury-court-garden,Castles,4
4517,Bembridge Fort and Downs,near Bembridge,Isle of Wight,50.671156,-1.11801,"Dramatic chalk cliffs and open downland with coastal views, military history and wildlife.",https://www.nationaltrust.org.uk/visit/isle-of-wight/bembridge-fort-and-downs,Coastline,5
150,Great Chalfield Manor and Garden,near Melksham,Wiltshire,51.368198,-2.19942,Charming fifteenth-century manor house with Arts and Crafts garden,https://www.nationaltrust.org.uk/visit/wiltshire/great-chalfield-manor-and-garden,Historic houses/mansions,3
97,The Courts Garden,near Bradford on Avon,Wiltshire,51.354401,-2.20101,Delightful English country garden,https://www.nationaltrust.org.uk/visit/wiltshire/the-courts-garden,Historic houses/mansions,3
5106,May Hill,Near Huntley,Gloucestershire,51.888107,-2.4431175,Wild and open landmark crowned with a distinctive row of pine trees,https://www.nationaltrust.org.uk/visit/gloucestershire-cotswolds/may-hill,Castles,4
6189,Winster Market House,Winster,Derbyshire,53.14169,-1.639948,The first property to be acquired by the National Trust in the Peak District,https://www.nationaltrust.org.uk/visit/peak-district-derbyshire/winster-market-house,Historic houses/mansions,3
4510,"Ilam Park, Dovedale and the White Peak",Ashbourne,Staffordshire,53.052624,-1.805627,"The White Peak, including Ilam Park, Dovedale, and Hamps and Manifold Valleys",https://www.nationaltrust.org.uk/visit/peak-district-derbyshire/ilam-park-dovedale-and-the-white-peak,Parks and open spaces,3
55,Brockhampton,near Bromyard,Herefordshire,52.1991,-2.4569,Traditionally farmed estate and medieval manor house. Brockhampton is home to the largest orchard cared for by the National Trust.,https://www.nationaltrust.org.uk/visit/worcestershire-herefordshire/brockhampton,Historic houses/mansions,3
111,Dudmaston,near Bridgnorth,Shropshire,52.495701,-2.36803,A working estate with an old family home at its heart,https://www.nationaltrust.org.uk/visit/shropshire-staffordshire/dudmaston,Historic houses/mansions,3
204,Little Clarendon,Salisbury,Wiltshire,51.0839,-1.97897,Late 15th-century stone house and chapel,https://www.nationaltrust.org.uk/visit/wiltshire/little-clarendon,Churches,4
261,Dinton Park and Philipps House,Salisbury,Wiltshire,51.0849,-1.98937,Enjoy far-reaching rolling parkland with tranquil views in the grounds of a Neo-Grecian house. ,https://www.nationaltrust.org.uk/visit/wiltshire/dinton-park-and-philipps-house,Parks and open spaces,3
5063,Borthwood Copse,near Winford,Isle of Wight,50.656034,-1.1999137,Paths wind through ancient oak woodland with sunny glades,https://www.nationaltrust.org.uk/visit/isle-of-wight/borthwood-copse,Forests/Woodlands,5
900043,Comer Woods Dudmaston Estate,Bridgnorth,Shropshire,52.5072532,-2.3811784,"A working woodland for nature, people and wildlife",https://www.nationaltrust.org.uk/visit/shropshire-staffordshire/dudmaston-estate-comer-woods,Forests/Woodlands,5
6104,Hawksmoor,Cheadle,Staffordshire,52.995079,-1.943121,Discover Staffordshire's secret woodlands,https://www.nationaltrust.org.uk/visit/shropshire-staffordshire/hawksmoor,Forests/Woodlands,5
119,Dyrham Park,near Bath,South Gloucestershire,51.4805,-2.3629,"Ancient parkland, 17th-century house and garden",https://www.nationaltrust.org.uk/visit/bath-bristol/dyrham-park,Parks and open spaces,3
6004,Newtown National Nature Reserve and Old Town Hall,Newtown,Isle of Wight,50.713617,-1.4014146,"A quiet backwater with a busy Medieval past, now bursting with wildlife and a town hall with no town...",https://www.nationaltrust.org.uk/visit/isle-of-wight/newtown-national-nature-reserve-and-old-town-hall,Historic houses/mansions,3
900039,Bathampton Meadows,,Bath and NE Somerset,51.4021025,-2.3207801,Green corridor linking the historic city of Bath to the countryside,https://www.nationaltrust.org.uk/visit/bath-bristol/bathampton-meadows,Historic houses/mansions,3
364,Westwood Manor,near Bradford-on-Avon,Wiltshire,51.329399,-2.27024,Fifteenth-century stone manor house,https://www.nationaltrust.org.uk/visit/wiltshire/westwood-manor,Historic houses/mansions,3
6132,New Forest Northern Commons,,Hampshire,50.873754,-1.7679058,"A colourful mosaic of blooming heather and gorse, braided wetlands and ancient woodland pasture",https://www.nationaltrust.org.uk/visit/hampshire/new-forest-northern-commons,Forests/Woodlands,5
5055,Bath Skyline,South East of the city of Bath,Bath and NE Somerset,51.3808819,-2.345693,Wide open space overlooking the World Heritage City of Bath,https://www.nationaltrust.org.uk/visit/bath-bristol/bath-skyline,Parks and open spaces,3
5148,Ventnor Downs,Wroxall,Isle of Wight,50.603989,-1.197933,Dramatic views from the highest point on the Island,https://www.nationaltrust.org.uk/visit/isle-of-wight/ventnor-downs,Historic houses/mansions,3
270,Prior Park Landscape Garden,Bath,Somerset,51.367298,-2.34352,Beautiful and intimate 18th-century landscape garden in Bath with one of only four Palladian bridges found in the world.,https://www.nationaltrust.org.uk/visit/bath-bristol/prior-park-landscape-garden,Castles,4
5073,Chillerton Down,,Isle of Wight,50.64444,-1.3207304,An impressive flank of open downland,https://www.nationaltrust.org.uk/visit/isle-of-wight/chillerton-down,Historic houses/mansions,3
25,Bath Assembly Rooms,Bath,Somerset,51.385799,-2.36123,Elegant public rooms at the heart of fashionable eighteenth-century Bath life,https://www.nationaltrust.org.uk/visit/bath-bristol/bath-assembly-rooms,Pubs,2
6109,Cley Hill,Warminster,Wiltshire,51.20299,-2.232584,Distinctive landmark rich in wildlife and archaeology with a tremendous panorama,https://www.nationaltrust.org.uk/visit/wiltshire/cley-hill,Historic houses/mansions,3
5234,Downs Banks,Near Stone,Staffordshire,52.927613,-2.150201,A little wilderness of woodlands and heath in the heart of the Midlands,https://www.nationaltrust.org.uk/visit/shropshire-staffordshire/downs-banks,Forests/Woodlands,5
233,Mottistone Gardens and Estate,near Brighstone,Isle of Wight,50.652447,-1.4283997,Enchanting gardens set in a sheltered valley and surrounded by rolling downland,https://www.nationaltrust.org.uk/visit/isle-of-wight/mottistone-gardens-and-estate,Historic houses/mansions,3
5078,Compton Bay and Downs,,Isle of Wight,50.655106,-1.4664884,One of the Island's favourite beaches and biggest expanses of open downland,https://www.nationaltrust.org.uk/visit/isle-of-wight/compton-bay-and-downs,Coastline,5
213,"Longshaw, Burbage and the Eastern Moors",near Sheffield,Derbyshire,53.316263,-1.600686,Excellent walking country with ancient woods and tumbling streams,https://www.nationaltrust.org.uk/visit/peak-district-derbyshire/longshaw-burbage-and-the-eastern-moors,Forests/Woodlands,5
5132,St Catherine's Down and Knowles Farm,Blackgang,Isle of Wight,50.58043,-1.3028374,"A wild rocky coast with jutting cliffs, a windswept down and sheltered wooded valley",https://www.nationaltrust.org.uk/visit/isle-of-wight/st-catherines-down-and-knowles-farm,Forests/Woodlands,5
5141,The Needles Headland and Tennyson Down,,Isle of Wight,50.668967,-1.5420824,"Beautiful open downland,sheer chalk cliffs and dramatic sea views",https://www.nationaltrust.org.uk/visit/isle-of-wight/the-needles-headland-and-tennyson-down,Coastline,5
30,Benthall Hall,Broseley,Shropshire,52.6208,-2.50303,A family home for 500 years,https://www.nationaltrust.org.uk/visit/shropshire-staffordshire/benthall-hall,Historic houses/mansions,3
237,The Needles Old Battery and New Battery,Alum Bay,Isle of Wight,50.666543,-1.5658388,Victorian coastal defence and secret rocket testing site perched high above the Needles Rocks,https://www.nationaltrust.org.uk/visit/isle-of-wight/the-needles-old-battery-and-new-battery,Coastline,5
6113,Win Green,Near Ludwell,Wiltshire,50.985132,-2.108106,Prominent landmark with fine views,https://www.nationaltrust.org.uk/visit/wiltshire/win-green,Industrial buildings,3
69,The Kymin,Monmouth,Monmouthshire,51.809101,-2.68323,"Charming 18th-century Round House and Naval Temple | Tŷ crwn hyfryd a Theml Forol o'r 18fed ganrif,",https://www.nationaltrust.org.uk/visit/wales/the-kymin,Historic houses/mansions,3
6208,Wenlock Edge,,Shropshire,52.5915,-2.57391,An 18 mile limestone escarpment,https://www.nationaltrust.org.uk/visit/shropshire-staffordshire/wenlock-edge,Historic houses/mansions,3
325,Sunnycroft,Telford,Shropshire,52.6955,-2.5167,"A comfortable home telling the story of a brewer, a widow and three generations of the Lander family",https://www.nationaltrust.org.uk/visit/shropshire-staffordshire/sunnycroft,Historic houses/mansions,3
31,Berrington Hall,near Leominster,Herefordshire,52.269501,-2.71427,Georgian grandeur on a human scale; neoclassical mansion by Henry Holland set in 'Capability' Brown's final landscape and gardens,https://www.nationaltrust.org.uk/visit/worcestershire-herefordshire/berrington-hall,Historic houses/mansions,3
317,Stourhead,near Mere,Wiltshire,51.1053226,-2.3177039,Palladian house and world-famous landscape garden,https://www.nationaltrust.org.uk/visit/wiltshire/stourhead,Historic houses/mansions,3
5292,Fontmell and Melbury Downs,Near Shaftesbury,Dorset,50.967604,-2.163719,Open expanses of flowery downland and far-reaching views,https://www.nationaltrust.org.uk/visit/dorset/fontmell-and-melbury-downs,Historic houses/mansions,3
36,Blaise Hamlet,Henbury,Bristol,51.5061,-2.63912,Nine rustic cottages around a green,https://www.nationaltrust.org.uk/visit/bath-bristol/blaise-hamlet,Cottages,2
900019,Alfred's Tower,,,51.114861,-2.365026,Triangular tower named after King Alfred who raised his standard here in 870,https://www.nationaltrust.org.uk/visit/wiltshire/king-alfreds-tower,Historic houses/mansions,3
372,Wilderhope Manor,Much Wenlock,Shropshire,52.529301,-2.6725,Elizabethan gabled manor house,https://www.nationaltrust.org.uk/visit/shropshire-staffordshire/wilderhope-manor,Historic houses/mansions,3
301,Skenfrith Castle,near Abergavenny,Monmouthshire,51.8778,-2.78942,Remains of an early 13th-century fortress,https://www.nationaltrust.org.uk/visit/wales/skenfrith-castle,Castles,4
5100,Leigh Woods,near Bristol,Bristol,51.454221,-2.641826,A wilderness of tranquility set against Brunel's famous suspension bridge,https://www.nationaltrust.org.uk/visit/bath-bristol/leigh-woods,Historic houses/mansions,3
32,Biddulph Grange Garden,Biddulph,Staffordshire,53.129601,-2.15629,"A masterpiece of Victorian garden design - a quirky, playful paradise",https://www.nationaltrust.org.uk/visit/shropshire-staffordshire/biddulph-grange-garden,Historic houses/mansions,3
356,The Weir Garden,Hereford,Herefordshire,52.072899,-2.82203,Escape to this spectacular riverside garden and be absorbed by natural beauty. ,https://www.nationaltrust.org.uk/visit/worcestershire-herefordshire/the-weir-garden,Historic houses/mansions,3
191,Kingston Lacy,Wimborne Minster,Dorset,50.81095,-2.0317977,A lavish family home re-imagined as a Venetian Palace in the rural Dorset countryside.,https://www.nationaltrust.org.uk/visit/dorset/kingston-lacy,Historic houses/mansions,3
4509,"Kinder, Edale and the High Peak",,Derbyshire,53.3458,-1.8156,"Heather-clad moors of Kinder, to the gritstone tors of Derwent Edge",https://www.nationaltrust.org.uk/visit/peak-district-derbyshire/kinder-edale-and-the-high-peak,Moors/Hills,4
900013,Badbury Rings,,,50.827095,-2.0582113,Iron Age hillfort home to protected wildlife,https://www.nationaltrust.org.uk/visit/dorset/badbury-rings,Moors/Hills,4
99,Croft Castle and Parkland,near Leominster,Herefordshire,52.284199,-2.79835,"1000 years of power, politics and pleasure in an intimate family home",https://www.nationaltrust.org.uk/visit/worcestershire-herefordshire/croft-castle-and-parkland,Historic houses/mansions,3
219,Maister House,Hull,East Yorkshire,53.743301,-0.32944,Grade 1 listed 18th-century merchant's house,https://www.nationaltrust.org.uk/visit/yorkshire/maister-house,Historic houses/mansions,3
366,White Mill,near Wimborne Minster,Dorset,50.805087,-2.0610352,Corn mill with original wooden machinery in a peaceful riverside setting,https://www.nationaltrust.org.uk/visit/dorset/white-mill,Mills,3
6204,Hambledon Hill,,Dorset,50.911692,-2.22182,Iron Age hill fort with far reaching views and spectacular wildflowers,https://www.nationaltrust.org.uk/visit/dorset/hambledon-hill,Moors/Hills,4
18,Attingham Park,Shrewsbury,Shropshire,52.685842,-2.671193,An 18th-century estate for all seasons with 200 acres of parkland and Regency Mansion,https://www.nationaltrust.org.uk/visit/shropshire-staffordshire/attingham-park,Historic houses/mansions,3
206,Little Moreton Hall,Congleton,Cheshire,53.126499,-2.24874,Iconic Tudor Manor House with wonky angles and quirky character,https://www.nationaltrust.org.uk/visit/cheshire-greater-manchester/little-moreton-hall,Historic houses/mansions,3
2362,Tyntesfield,Bristol,North Somerset,51.4485,-2.71889,"An ornate Victorian Gothic Revival house with extensive garden and parkland, just a stone's throw from Bristol",https://www.nationaltrust.org.uk/visit/bath-bristol/tyntesfield,Parks and open spaces,3
2507,Attingham Park Estate: Cronkhill,Shrewsbury,Shropshire,52.669399,-2.68733,One of the first and finest examples of John Nash's Italianate villa designs,https://www.nationaltrust.org.uk/visit/shropshire-staffordshire/attingham-park-estate-cronkhill,Historic houses/mansions,3
5404,Hod Hill,Nr Blandford Forum,Dorset,50.875819,-2.203193,Dorset's largest hill fort renowned for its downland wildlife,https://www.nationaltrust.org.uk/visit/dorset/hod-hill,Moors/Hills,4
90008,Wentworth Castle Gardens,Barnsley,South Yorkshire,53.527001,-1.5181156,"Glorious gardens, woodland and parkland, created for the privileged few and preserved for everyone to enjoy",https://www.nationaltrust.org.uk/visit/yorkshire/wentworth-castle-gardens,Forests/Woodlands,5
54,Brownsea Island,Poole,Dorset,50.6884,-1.95622,"Famous for red squirrels, wildlife and Scouting",https://www.nationaltrust.org.uk/visit/dorset/brownsea-island,Castles,4
63,Carding Mill Valley and the Long Mynd,,Shropshire,52.5448,-2.82018,"Take a walk across the wildlife-rich heathland and enjoy the views across the Shropshire Hills, or simply play in the stream in the valley.",https://www.nationaltrust.org.uk/visit/shropshire-staffordshire/carding-mill-valley-and-the-long-mynd,Moors/Hills,4
5070,Cadbury Camp,Nr Clevedon,North Somerset,51.4479,-2.78711,Iron Age hill fort on the ridge above the village of Tickenham in North Somerset,https://www.nationaltrust.org.uk/visit/somerset/cadbury-camp,Moors/Hills,4
320,Studland Bay,near Swanage,Dorset,50.651732,-1.953806,Vast area of sandy beaches and heathland,https://www.nationaltrust.org.uk/visit/dorset/studland-bay,Coastline,5
332,Attingham Park Estate: Town Walls Tower,Shrewsbury,Shropshire,52.705002,-2.75512,Shrewsbury's last remaining watchtower,https://www.nationaltrust.org.uk/visit/shropshire-staffordshire/attingham-park-estate-town-walls-tower,Historic houses/mansions,3
215,Lyme,Stockport,Cheshire,53.337002,-2.05322,"Glorious house, surrounded by gardens, moorland and deer park",https://www.nationaltrust.org.uk/visit/cheshire-greater-manchester/lyme,Moors/Hills,4
5177,Mendip Hills,,,51.296276,-2.721176,Dramatic gorges and ancient woodland rising above the Somerset Levels,https://www.nationaltrust.org.uk/visit/somerset/mendip-hills,Forests/Woodlands,5
84,Clevedon Court,Clevedon,North Somerset,51.439657,-2.831597,Medieval manor house and 18th-century terraced garden with wide views of the Mendip Hills,https://www.nationaltrust.org.uk/visit/bath-bristol/clevedon-court,Historic houses/mansions,3
166,Hare Hill,Macclesfield,Cheshire,53.28368,-2.188858,"A tranquil wooded garden, surrounded by historic parkland, with a delightful walled garden at its heart.",https://www.nationaltrust.org.uk/visit/cheshire-greater-manchester/hare-hill,Kitchen gardens,3
241,Nostell,near Wakefield,West Yorkshire,53.652599,-1.38881,"Georgian treasure house, landscaped gardens, parkland and stables courtyard.",https://www.nationaltrust.org.uk/visit/yorkshire/nostell,Historic landscaped gardens,4
4512,Cheddar Gorge,Cheddar,Somerset,51.28534,-2.764218,Discover the heights of Somerset's famous Cheddar Gorge,https://www.nationaltrust.org.uk/visit/somerset/cheddar-gorge,Castles,4
473,Alderley Edge and Cheshire Countryside,Macclesfield,Cheshire,53.296501,-2.21235,"Dramatic red sandstone escarpment, with impressive views",https://www.nationaltrust.org.uk/visit/cheshire-greater-manchester/alderley-edge-and-cheshire-countryside,Historic houses/mansions,3
238,Nether Alderley Mill,Macclesfield,Cheshire,53.281101,-2.23655,"Concealed under the long sloping roof of this medieval building is a fully restored, working corn mill.",https://www.nationaltrust.org.uk/visit/cheshire-greater-manchester/nether-alderley-mill,Mills,3
94,Corfe Castle,Wareham,Dorset,50.64013,-2.0588,Thousand-year-old royal castle shaped by warfare,https://www.nationaltrust.org.uk/visit/dorset/corfe-castle,Castles,4
5287,Spyway,near Swanage,Dorset,50.6065,-2.005599,Towering sea cliffs and grasslands rich in wild flowers,https://www.nationaltrust.org.uk/visit/dorset/spyway,Coastline,5
143,Glastonbury Tor,near Glastonbury,Somerset,51.143368,-2.707853,"Prominent hill overlooking the Isle of Avalon, Glastonbury and Somerset",https://www.nationaltrust.org.uk/visit/somerset/glastonbury-tor,Industrial buildings,3
190,King John's Hunting Lodge,Axbridge,Somerset,51.2864,-2.82384,Wool-merchant's house of circa 1500,https://www.nationaltrust.org.uk/visit/somerset/king-johns-hunting-lodge,Castles,4
6010,Sugar Loaf and Usk Valley,Abergavenny,Monmouthshire,51.844095,-3.062519,"Iconic mountains, rich countryside and a sweeping 18th century landscaped park ",https://www.nationaltrust.org.uk/visit/wales/sugar-loaf-skirrid-and-usk-valley,Parks and open spaces,3
85,Clouds Hill,near Wareham,Dorset,50.717878,-2.251675,The rural retreat of T. E. Lawrence,https://www.nationaltrust.org.uk/visit/dorset/clouds-hill,Castles,4
272,Quarry Bank,Wilmslow,Cheshire,53.345158,-2.240885,"One of Britain's greatest industrial heritage sites, set in picturesque gardens and countryside ",https://www.nationaltrust.org.uk/visit/cheshire-greater-manchester/quarry-bank,Historic houses/mansions,3
218,Lytes Cary Manor,near Somerton,Somerset,51.037258,-2.667,Intimate manor house with Arts and Crafts-style garden. ,https://www.nationaltrust.org.uk/visit/somerset/lytes-cary-manor,Historic houses/mansions,3
4524,Tredegar House,Newport,,51.561601,-3.028106,"A place shaped by the local community, Tredegar House and its surrounding gardens and parkland stand proudly at the heart of Newport’s heritage. Mae Tŷ Tredegar a’i erddi a’i barcdir amgylchynol, lleoliad sydd wedi’i siapio gan y gymuned leol, yn sefyll yn falch wrth galon treftadaeth Casnewydd. ",https://www.nationaltrust.org.uk/visit/wales/tredegar-house,Parks and open spaces,3
6238,Sand Point,Weston-super-Mare,Somerset,51.388837,-2.963809,"A natural pier into the Bristol Channel, north of Weston-super-Mare and Brean Down. Perfect for picnics; views across Sand Bay.",https://www.nationaltrust.org.uk/visit/somerset/sand-point,Castles,4
5072,Cerne Giant,Cerne Abbas,Dorset,50.812979,-2.475441,Ancient naked figure sculpted into the chalk hillside above Cerne Abbas,https://www.nationaltrust.org.uk/visit/dorset/cerne-giant,Moors/Hills,4
168,Hardy's Cottage,near Dorchester,Dorset,50.731308,-2.386136,Evocative cob and thatch cottage - birthplace of Thomas Hardy,https://www.nationaltrust.org.uk/visit/dorset/hardys-cottage,Cottages,2
327,Tatton Park,Knutsford,Cheshire,53.327599,-2.37039,"An historical estate with a neo-classical mansion, 50 acres of landscaped gardens, 1000 acres of deer park, a rare breed farm and medieval Old Hall.",https://www.nationaltrust.org.uk/visit/cheshire-greater-manchester/tatton-park,Historic houses/mansions,3
331,Tintinhull Garden,Yeovil,Somerset,50.97485,-2.710639,"A place of floral beauty, tranquillity and innovation - a gardener's garden paradise.",https://www.nationaltrust.org.uk/visit/somerset/tintinhull-garden,Pubs,2
313,Stembridge Tower Mill,High Ham,Somerset,51.071268,-2.810663,The last remaining thatched windmill in England,https://www.nationaltrust.org.uk/visit/somerset/stembridge-tower-mill,Cottages,2
223,Marsden Moor,Marsden,West Yorkshire,53.601845,-1.93045,Take a walk on the wild side and enjoy the rugged moorland landscape.,https://www.nationaltrust.org.uk/visit/yorkshire/marsden-moor,Moors/Hills,4
2365,Brean Down,Brean,Somerset,51.324402,-3.01443,A natural pier with dramatic cliffs and Victorian fort,https://www.nationaltrust.org.uk/visit/somerset/brean-down,Coastline,5
221,"Hardy's House, Max Gate",Dorchester,Dorset,50.707901,-2.419803,Atmospheric Victorian home designed by Thomas Hardy,https://www.nationaltrust.org.uk/visit/dorset/hardys-house-max-gate,Castles,4
228,Montacute House,,Somerset,50.950569,-2.715212,"A masterpiece of Elizabethan Renaissance architecture and design, with towering walls of glass, glowing ham stone and surrounding garden. While the upper floors of the house will remain closed for 2024 there is plenty to see on the ground floor, and in the garden and parkland.",https://www.nationaltrust.org.uk/visit/somerset/montacute-house,Parks and open spaces,3
268,"Priest's House, Muchelney",Langport,Somerset,51.021042,-2.815183,Late medieval hall-house in a picturesque village,https://www.nationaltrust.org.uk/visit/somerset/priests-house-muchelney,Historic houses/mansions,3
314,Stoke-sub-Hamdon Priory,Stoke-sub-Hamdon,Somerset,50.953933,-2.750884,"14th/15th-century farm buildings, formerly a priest's residence",https://www.nationaltrust.org.uk/visit/somerset/stoke-sub-hamdon-priory,Farmland,3
334,"Treasurer's House, Martock",Martock,Somerset,50.968954,-2.768038,Small medieval house,https://www.nationaltrust.org.uk/visit/somerset/treasurers-house-martock,Historic houses/mansions,3
112,Dunham Massey,Altrincham,,53.3832,-2.4045,"A garden for all seasons, an ancient deer park and a house filled with treasures and stories.",https://www.nationaltrust.org.uk/visit/cheshire-greater-manchester/dunham-massey,Parks and open spaces,3
5062,Ringstead Bay,near Weymouth,Dorset,50.630861,-2.35342,"Unspoilt beach, farmland and cliffs on the Jurassic Coast World Heritage Site",https://www.nationaltrust.org.uk/visit/dorset/ringstead-bay,Coastline,5
900022,Castlefield Viaduct,Manchester,Greater Manchester,53.4751776,-2.2547594,"A Victorian-era steel viaduct transformed into a temporary green ‘sky garden’ in the heart of Manchester. Book a free morning guided visit or wander at your own pace, no booking needed, from 12.30pm everyday and all day Wednesdays and weekends.",https://www.nationaltrust.org.uk/visit/cheshire-greater-manchester/castlefield-viaduct,Castles,4
266,Powis Castle and Garden,Welshpool,Powys,52.6492,-3.15764,Medieval castle rising dramatically above the celebrated garden,https://www.nationaltrust.org.uk/visit/wales/powis-castle-and-garden,Castles,4
2361,Goddards,York,North Yorkshire,53.940102,-1.10261,A hidden garden on the edge of York,https://www.nationaltrust.org.uk/visit/yorkshire/goddards,Historic houses/mansions,3
22,Barrington Court,near Ilminster,Somerset,50.960499,-2.85778," An atmospheric fragment of old Somerset; the estate is the vision of Colonel Lyle and his architect James Edwin Forbes. Whilst Court and Strode House remain closed for repair, there are glorious garden rooms, avenues, and orchards to explore. Interactive installations in the farm buildings tell the stories of key characters and the development of the estate.",https://www.nationaltrust.org.uk/visit/somerset/barrington-court,Historic houses/mansions,3
167,Hardy Monument,Portesham,Dorset,50.686199,-2.54871,Monument to Vice-Admiral Hardy,https://www.nationaltrust.org.uk/visit/dorset/hardy-monument,Castles,4
335,"Treasurer's House, York",York,North Yorkshire,53.962764,-1.080973,Step inside this house of contradictions in the centre of York,https://www.nationaltrust.org.uk/visit/yorkshire/treasurers-house-york,Historic houses/mansions,3
5015,Eggardon Hill,Bridport,Dorset,50.748316,-2.644877,Iron Age hill fort and downland with views across the Marshwood Vale to the coast,https://www.nationaltrust.org.uk/visit/dorset/eggardon-hill,Forests/Woodlands,5
124,Erddig,,Wrexham,53.027302,-3.00296,"Explore a much-loved home, garden and estate filled with the stories of a family and their servants | Archwiliwch gartref, gardd ac ystâd sy'n llawn straeon am deulu a'u gweision",https://www.nationaltrust.org.uk/visit/wales/erddig,Historic houses/mansions,3
76,Chirk Castle,Chirk,Wrexham,52.935902,-3.08353,Magnificent medieval fortress of the Welsh Marches | Castell canoloesol odidog Y Mers,https://www.nationaltrust.org.uk/visit/wales/chirk-castle,Castles,4
5289,Lewesdon Hill,Beaminster,Dorset,50.807833,-2.799555,"The highest point in Dorset with views between the trees over Devon, Somerset and out to sea",https://www.nationaltrust.org.uk/visit/dorset/lewesdon-hill,Historic houses/mansions,3
5284,Dyffryn Gardens,St Nicholas,Vale of Glamorgan,51.4439,-3.3029,"An Edwardian garden in restoration with an ever-changing seasonal landscape | Gardd Edwardaidd sy’n cael ei hadfer, gyda thirwedd dymhorol sy’n newid yn barhaus",https://www.nationaltrust.org.uk/visit/wales/dyffryn-gardens,Castles,4
5098,Lanlay,Peterston-super-Ely,Vale of Glamorgan,51.47518,-3.32754,A landscape untouched by a generation of progress,https://www.nationaltrust.org.uk/visit/wales/lanlay-meadows,Historic houses/mansions,3
5290,Pilsdon Pen,Beaminster,Dorset,50.8,-2.833333,"One of Dorset's prominent landmarks, dominated by an Iron Age hill fort",https://www.nationaltrust.org.uk/visit/dorset/pilsdon-pen,Industrial buildings,3
91,Coleridge Cottage,Bridgwater,Somerset,51.151657,-3.157475,Home of Romantic poet Samuel Taylor Coleridge,https://www.nationaltrust.org.uk/visit/somerset/coleridge-cottage,Castles,4
165,Hardcastle Crags,Hebden Bridge,West Yorkshire,53.758548,-2.01806,A spectacular wooded valley with 19th-century Gibson Mill at its heart,https://www.nationaltrust.org.uk/visit/yorkshire/hardcastle-crags,Mills,3
137,Fyne Court,Bridgwater,Somerset,51.082907,-3.112139,Discover a wild garden and explore woodland and meadows,https://www.nationaltrust.org.uk/visit/somerset/fyne-court,Forests/Woodlands,5
5444,Hive Beach,Burton Bradstock,Dorset,50.696606,-2.722042,Spectacular coastline with cliffs and miles of unspoilt beaches on the Jurassic Coast World Heritage Site,https://www.nationaltrust.org.uk/visit/dorset/hive-beach,Coastline,5
5067,Brecon Beacons,Libanus,Powys,51.869149,-3.473123,Explore the diverse landscape of the Brecon Beacons | Archwilio tirwedd amrywiol Bannau Brycheiniog,https://www.nationaltrust.org.uk/visit/wales/bannau-brycheiniog-brecon-beacons,Historic houses/mansions,3
29,Beningbrough,York,North Yorkshire,54.022099,-1.21315,"Art exhibitions, history, and evolving gardens in the Yorkshire countryside  ",https://www.nationaltrust.org.uk/visit/yorkshire/beningbrough,Historic houses/mansions,3
5103,Lambert's and Coney's Castle,Bridport,Dorset,50.78438,-2.902129,Walk in the footsteps of previous generations along these ancient hillforts,https://www.nationaltrust.org.uk/visit/dorset/lamberts-and-coneys-castle,Moors/Hills,4
120,East Riddlesden Hall,Keighley,West Yorkshire,53.873199,-1.87589,"Historic house and intimate gardens, a hidden oasis on the edge of a West Yorkshire town",https://www.nationaltrust.org.uk/visit/yorkshire/east-riddlesden-hall,Historic houses/mansions,3
5090,Golden Cap,Bridport,Dorset,50.73693,-2.874292,Stunning coastline overlooking the Jurassic Coast World Heritage Site,https://www.nationaltrust.org.uk/visit/dorset/golden-cap,Coastline,5
306,Speke Hall,Speke,Liverpool,53.336498,-2.87353,A green oasis on the edge of Liverpool with a rare Tudor house at its heart,https://www.nationaltrust.org.uk/visit/liverpool-lancashire/speke-hall,Historic houses/mansions,3
2504,The Beatles' Childhood Homes,Woolton and Allerton,Liverpool,53.376751,-2.880458,A combined tour of Mendips and 20 Forthlin Road in Liverpool,https://www.nationaltrust.org.uk/visit/liverpool-lancashire/the-beatles-childhood-homes,Historic houses/mansions,3
211,Loughwood Meeting House,Axminster,Devon,50.788428,-3.061108,Atmospheric 17th-century thatched Baptist meeting house,https://www.nationaltrust.org.uk/visit/devon/loughwood-meeting-house,Cottages,2
5051,Abergwesyn Common,,Powys,52.160639,-3.676753,A wild and ancient landscape with far-reaching views,https://www.nationaltrust.org.uk/visit/wales/abergwesyn-common,Historic houses/mansions,3
298,Shute Barton,near Axminster,Devon,50.7714,-3.05677,Medieval house with later architectural features,https://www.nationaltrust.org.uk/visit/devon/shute-barton,Historic houses/mansions,3
6205,Wellington Monument,,Somerset,50.948397,-3.229276,"A striking landmark recently restored, on the edge of the Blackdown Hills. Tours of the monument will resume in April - click on the button below to book. The countryside is open all year.",https://www.nationaltrust.org.uk/visit/somerset/wellington-monument,Moors/Hills,4
138,Gawthorpe Hall,near Burnley,Lancashire,53.803799,-2.29093,An Elizabethan gem in the heart of industrial Lancashire ,https://www.nationaltrust.org.uk/visit/liverpool-lancashire/gawthorpe-hall,Historic houses/mansions,3
242,Nunnington Hall,near York,North Yorkshire,54.204601,-0.97233,Picturesque Yorkshire manor house with organic garden and exciting exhibitions,https://www.nationaltrust.org.uk/visit/yorkshire/nunnington-hall,Historic houses/mansions,3
2505,The Hardmans' House,Liverpool,Merseyside,53.399843,-2.9737277,"A 1950s time capsule of Liverpool life and creativity, the home and photographic studio of the Edward Chambré and Margaret Hardman ",https://www.nationaltrust.org.uk/visit/liverpool-lancashire/the-hardmans-house,Historic houses/mansions,3
115,Dunster Castle and Watermill,Minehead,Somerset,51.186187,-3.438736,An ancient castle and comfortable country home with dramatic vistas and subtropical gardens,https://www.nationaltrust.org.uk/visit/somerset/dunster-castle-and-watermill,Castles,4
52,Brimham Rocks,Harrogate,North Yorkshire,54.081699,-1.67613,Explore dramatic moorland rock formations,https://www.nationaltrust.org.uk/visit/yorkshire/brimham-rocks,Moors/Hills,4
134,Fountains Abbey and Studley Royal Water Garden,Ripon,North Yorkshire,54.1096,-1.58033,Ancient abbey ruins and an awe-inspiring water garden at this World Heritage Site,https://www.nationaltrust.org.uk/visit/yorkshire/fountains-abbey-and-studley-royal-water-garden,Archaeological sites/ruins,5
51,"Bridestones, Crosscliff and Blakey Topping",Pickering,North Yorkshire,54.302502,-0.66015,A moorland nature reserve with unusual and unique rock formations,https://www.nationaltrust.org.uk/visit/yorkshire/bridestones-crosscliff-and-blakey-topping,Moors/Hills,4
6241,Selworthy,,Somerset,51.210558,-3.547135,"A timeless rural landscape of thatched cottages, nestled in the vale of the Holnicote Estate.",https://www.nationaltrust.org.uk/visit/somerset/selworthy,Historic houses/mansions,3
278,Rievaulx Terrace,Helmsley,North Yorkshire,54.253899,-1.11556,"One of Yorkshire's finest 18th-century landscape gardens, containing two temples",https://www.nationaltrust.org.uk/visit/yorkshire/rievaulx-terrace,Historic houses/mansions,3
49,Branscombe,Seaton,Devon,50.6922,-3.13646,"Tucked away in a valley that runs down to a beach on the famous Jurassic Coast, there is a timeless magic about this old village",https://www.nationaltrust.org.uk/visit/devon/branscombe,Coastline,5
3,Aberdulais,Neath,Neath Port Talbot,51.680698,-3.77791,"An Industrial Revolution, powered by water since 1584! | Yn Chwyldroad Diwydiannol, wedi'i bweru gan ddŵr ers 1584!",https://www.nationaltrust.org.uk/visit/wales/aberdulais,Castles,4
6239,Bossington,,Somerset,51.22117,-3.582119,"A peaceful coastal hamlet on the edge of the Holnicote Estate, with distinctive thatched cottages.",https://www.nationaltrust.org.uk/visit/somerset/bossington,Historic houses/mansions,3
283,Rufford Old Hall,near Ormskirk,Lancashire,53.63775,-2.81365,"A fine Tudor house and colourful garden, home to five centuries of Lancashire and Hesketh family history",https://www.nationaltrust.org.uk/visit/liverpool-lancashire/rufford-old-hall,Historic houses/mansions,3
900025,Hafod Estate,Ystrad Meurig,Ceredigion,52.347167,-3.809934,One of the finest examples of a Picturesque landscape in Europe  |  Un o’r enghreifftiau gorau o dirwedd pictiwresg yn Ewrop,https://www.nationaltrust.org.uk/visit/wales/hafod-estate,Historic houses/mansions,3
6242,Webber's Post,,Somerset,51.18288,-3.571351,"A fine lookout on the Holnicote Estate with views over Horner Wood and the wild expanse of moorland stretching up to Dunkery Beacon, the highest point on Exmoor.",https://www.nationaltrust.org.uk/visit/somerset/webbers-post,Historic houses/mansions,3
6240,Horner Wood,,Somerset,51.184803,-3.585608,"One of the largest and most beautiful ancient oak woods in Britain, a National Nature Reserve nestled on the Holnicote Estate.",https://www.nationaltrust.org.uk/visit/somerset/horner-wood,Historic houses/mansions,3
6091,Sidmouth countryside,Sidmouth,Devon,50.693485,-3.2076165,Gentle countryside walks and coastal hikes,https://www.nationaltrust.org.uk/visit/devon/sidmouth-countryside,Coastline,5
384,Yorkshire Coast,near Ravenscar,North Yorkshire,54.400398,-0.48725,A stunning coastline with two National Trust cafes and visitor centres at Robin Hood's Bay and Ravenscar.,https://www.nationaltrust.org.uk/visit/yorkshire/yorkshire-coast,Coastline,5
192,Knightshayes,Tiverton,Devon,50.920777,-3.485064,"A great post-war garden,19th-century parkland and grand Gothic Revival architecture by Victorian visionary William Burges.",https://www.nationaltrust.org.uk/visit/devon/knightshayes,Parks and open spaces,3
108,Dolaucothi,Llanwrda,Carmarthenshire,52.0443,-3.94824,Pull on your boots and discover the UK’s only known Roman Gold Mine | Ewch i wisgo eich bŵts a darganfod unig Fwynglawdd Aur Rhufeinig hysbys y DU.,https://www.nationaltrust.org.uk/visit/wales/dolaucothi,Industrial buildings,3
135,Formby,Formby,Liverpool,53.563,-3.09217,A coastal nature haven for wildlife and people ,https://www.nationaltrust.org.uk/visit/liverpool-lancashire/formby,Coastline,5
90009,Lorna Doone Valley,Lynton,Devon,51.216183,-3.728033,Mystical valley and peaceful walks in countryside made famous by RD Blackmore,https://www.nationaltrust.org.uk/visit/devon/lorna-doone-valley,Historic houses/mansions,3
6220,Ashclyst Forest,Exeter,Devon,50.7875671,-3.421156,A magical forest on the Killerton estate and one of the largest woods in East Devon.,https://www.nationaltrust.org.uk/visit/devon/ashclyst-forest,Historic houses/mansions,3
189,Killerton,Exeter,Devon,50.792,-3.4565,A family home and a great estate. Glorious landscape garden surrounded by parkland with fine 18th-century house.,https://www.nationaltrust.org.uk/visit/devon/killerton,Historic houses/mansions,3
107,Dinefwr,Llandeilo,Carmarthenshire,51.882099,-4.01424,Historic Newton House surrounded by a National Nature Reserve and 18th century landscape Deer Park  | Mae Tŷ hanesyddol Newton wedi'i amgylchynu gan Warchodfa Natur Genedlaethol a Pharc Ceirw tirweddol o'r 18fed ganrif.,https://www.nationaltrust.org.uk/visit/wales/dinefwr,Nature reserves,5
222,Yorkshire Dales,Settle,North Yorkshire,54.104698,-2.17682,"Enjoy picturesque villages, drystone walls, flower filled hay meadows and the characteristic rolling hills of the Dales.",https://www.nationaltrust.org.uk/visit/yorkshire/yorkshire-dales,Moors/Hills,4
90005,Clyston Mill,Exeter,Devon,50.7657297,-3.4475338,A historic watermill nestled by the River Clyst on the Killerton estate,https://www.nationaltrust.org.uk/visit/devon/clyston-mill,Historic houses/mansions,3
355,Watersmeet,Lynmouth,Devon,51.2211,-3.79444,Dramatic river gorge and ancient woodland in stunning surroundings,https://www.nationaltrust.org.uk/visit/devon/watersmeet,Forests/Woodlands,5
6012,Ysbyty Ifan,Betws y Coed,Conwy,53.023045,-3.726415,"An agricultural estate, rich in wildlife and history | Stad amaethyddol, llawn bywyd gwyllt a hanes",https://www.nationaltrust.org.uk/visit/wales/ysbyty-ifan,Historic houses/mansions,3
6014,South Eryri (Snowdonia),Dolgellau,Gwynedd,52.80119,-3.88969,"Remote mountains steeped in history, deep wooded valleys and spectacular estuaries | Mynyddoedd anghysbell yn llawn hanes, dyffrynnoedd coediog dwfn ac aberoedd ysblennydd",https://www.nationaltrust.org.uk/visit/wales/south-snowdonia,Forests/Woodlands,5
235,"Mount Grace Priory, House and Gardens",Northallerton,North Yorkshire,54.380402,-1.30984,"Ruin of a 14th-century Carthusian priory, a manor house and gardens",https://www.nationaltrust.org.uk/visit/yorkshire/mount-grace-priory,Historic houses/mansions,3
45,Braithwaite Hall,Leyburn,North Yorkshire,54.2668,-1.81933,17th-century farmhouse in beautiful Coverdale,https://www.nationaltrust.org.uk/visit/yorkshire/braithwaite-hall,Farmland,3
1,A la Ronde,Exmouth,Devon,50.641718,-3.408798,"Quirky 18th-century, 16 sided house with fascinating interior decoration and collections",https://www.nationaltrust.org.uk/visit/devon/a-la-ronde,Historic houses/mansions,3
900029,Cregennan Lakes,,,52.709828,-3.988609,"With tremendous views of the Mawddach Estuary and Barmouth Bridge, this Site of Special Scientific Interest (SSSI) is a picturesque paradise for walkers. ",https://www.nationaltrust.org.uk/visit/wales/cregennan,Castles,4
341,Tŷ Mawr Wybrnant,Betws-y-Coed,Conwy,53.052502,-3.83218,Man geni’r Esgob William Morgan | Birthplace of Bishop William Morgan,https://www.nationaltrust.org.uk/visit/wales/ty-mawr-wybrnant,Shops,2
170,Heddon Valley,Barnstaple,Devon,51.215599,-3.92621,"Towering cliffs, coves and a wooded valley within Exmoor National Park",https://www.nationaltrust.org.uk/visit/devon/heddon-valley,Forests/Woodlands,5
6096,"Pennard, Pwll Du and Bishopston Valley",,Swansea,51.5669,-4.0878,"Rich in industrial heritage, caves, ancient woodland and rare species",https://www.nationaltrust.org.uk/visit/wales/pennard-pwll-du-and-bishopston-valley,Forests/Woodlands,5
6095,Penmaen and Nicholaston Burrows,,Swansea,51.5718,-4.1204,"Archaeology, lichen rich dunes and the award winning Three Cliffs Bay",https://www.nationaltrust.org.uk/visit/wales/penmaen-and-nicholaston-burrows,Pubs,2
282,Roseberry Topping,Newton-under-Roseberry,North Yorkshire,54.5056,-1.10471,Distinctive and iconic hill with fine views across North Yorkshire and Cleveland,https://www.nationaltrust.org.uk/visit/yorkshire/roseberry-topping,Moors/Hills,4
208,Llanerchaeron,near Aberaeron,Ceredigion,52.218201,-4.22546,"An elegant Georgian villa, designed by architect John Nash in 1790, complete with a walled garden, farmyard lake and wild parkland. Remarkably unaltered for over 200 years. | Fila Sioraidd, gain, wedi'i dylunio gan y pensaer, John Nash yn 1790, ynghyd â gardd furiog, llyn iard fferm a thir parc gwyllt. Yn rhyfeddol, nid yw wedi'i haddasu ers dros 200 mlynedd.",https://www.nationaltrust.org.uk/visit/wales/llanerchaeron,Kitchen gardens,3
37,Bodnant Garden,near Colwyn Bay,Conwy,53.236099,-3.79996,A world-famous garden home to National Collections and Champion Trees | Gardd fyd enwog yn gartref i Gasgliadau Cenedlaethol a Choed Campus,https://www.nationaltrust.org.uk/visit/wales/bodnant-garden,Historic houses/mansions,3
12,Arlington Court and the National Trust Carriage Museum,near Barnstaple,Devon,51.145699,-3.98588,"Intriguing Regency house and impressive collection of horse-drawn vehicles, set in a picturesque garden",https://www.nationaltrust.org.uk/visit/devon/arlington-court-and-the-national-trust-carriage-museum,Historic houses/mansions,3
250,Ormesby Hall,Middlesbrough,North Yorkshire,54.5432,-1.1829,"Home to the Pennyman family, Ormesby Hall, garden and parkland is a green oasis in the heart of industrial Middlesbrough.",https://www.nationaltrust.org.uk/visit/north-east/ormesby-hall,Historic houses/mansions,3
89,Conwy Suspension Bridge,,Conwy,53.281128,-3.828009,Elegant suspension bridge,https://www.nationaltrust.org.uk/visit/wales/conwy-suspension-bridge,Historic houses/mansions,3
2,Aberconwy House,,Conwy,53.282101,-3.82732,14th-century merchant's house,https://www.nationaltrust.org.uk/visit/wales/aberconwy-house,Historic houses/mansions,3
6094,Whiteford and North Gower,,Swansea,51.63,-4.2503,The quiet north Gower coast with its extensive saltmarsh and dunes,https://www.nationaltrust.org.uk/visit/wales/whiteford-and-north-gower,Coastline,5
5131,Rhosili and South Gower Coast,Rhosili,Swansea,51.568525,-4.286882,Beautiful and breathtaking views on the Gower peninsula | Golygfeydd syfrdanol ar benrhyn Gŵyr,https://www.nationaltrust.org.uk/visit/wales/rhosili-and-south-gower-coast,Historic houses/mansions,3
6235,Ogwen Cottage,Bethesda,Gwynedd,53.123328,-4.018443,Outdoor centre nestled between Carneddau and Glyderau | Chanolfan awyr agored yn swatio rhwng y Carneddau a'r Glyderau,https://www.nationaltrust.org.uk/visit/wales/ogwen-cottage,Historic houses/mansions,3
6015,Craflwyn and Beddgelert,near Beddgelert,Gwynedd,53.019931,-4.088592,Unwind amongst the wooded foothills of Yr Wyddfa (Snowdon) | Ymlaciwch ymysg odre coediog Yr Wyddfa,https://www.nationaltrust.org.uk/visit/wales/craflwyn-and-beddgelert,Forests/Woodlands,5
6011,Carneddau and Glyderau,Bethesda,Gwynedd,53.123603,-4.020383,Experience the wildest landscape of Eryri (Snowdonia) | Profwch dirlun anial Eryri,https://www.nationaltrust.org.uk/visit/wales/carneddau-and-glyderau,Historic houses/mansions,3
5160,Heysham Coast,,Lancashire,54.046973,-2.902574,Beautiful sandstone headland renowned for its eighth-century chapel and rock hewn graves; a wonderful urban green space,https://www.nationaltrust.org.uk/visit/liverpool-lancashire/heysham-coast,Churches,4
90027,Great Orme,Near Llandudno,Conwy,53.332401,-3.855484,"Surrounded by a 3,000-metre-long drystone wall, Y Parc farm on the Great Orme is rich in wildlife, archaeology and geology  Wedi'i amgylchynu â wal gerrig sych 3,000 medr o hyd, mae fferm Y Parc ar Ben y Gogarth yn frith o fywyd gwyllt, archaeoleg a daeareg",https://www.nationaltrust.org.uk/visit/wales/great-orme,Farmland,3
6219,Fingle Bridge,Exeter,Devon,50.695276,-3.780949,A calm spot over the River Teign with unspoilt woods,https://www.nationaltrust.org.uk/visit/devon/fingle-bridge,Forests/Woodlands,5
5116,Parke,near Bovey Tracey,Devon,50.594692,-3.689277,A peaceful retreat set within the beautiful Devon countryside,https://www.nationaltrust.org.uk/visit/devon/parke,Historic houses/mansions,3
48,Bradley,Newton Abbot,Devon,50.5256,-3.62486,Unspoilt medieval manor house set in woodland and meadows,https://www.nationaltrust.org.uk/visit/devon/bradley,Historic houses/mansions,3
900036,Cwmtydu to New Quay,,,52.191394,-4.406872,"From the sheltered cove of Cwmtydu to the fishing village of New Quay, this stretch of coast is a haven for wildlife.",https://www.nationaltrust.org.uk/visit/wales/cwmtydu-to-new-quay,Coastline,5
68,Castle Drogo,near Exeter,Devon,50.695903,-3.8110956,Where dramatic architecture meets innovative family home. A 20th century castle overlooking the Teign Gorge.,https://www.nationaltrust.org.uk/visit/devon/castle-drogo,Castles,4
5109,Woolacombe,Woolacombe,Devon,51.178733,-4.167389,"Spectacular coastline of cliff, coves, beaches, dunes and headlands",https://www.nationaltrust.org.uk/visit/devon/woolacombe,Coastline,5
93,Compton Castle,Paignton,Devon,50.472198,-3.59649,Dramatic fortified manor house and small formal garden,https://www.nationaltrust.org.uk/visit/devon/compton-castle,Historic houses/mansions,3
6217,Mortehoe,Mortehoe,Devon,51.187373,-4.198934,"Gateway to a wild, remote coast with a rich history of wrecking and smuggling. Amazing walking, wildlife and sunbathing seals.",https://www.nationaltrust.org.uk/visit/devon/mortehoe,Coastline,5
130,Finch Foundry,Okehampton,Devon,50.730202,-3.92589,The last working water-powered forge in England,https://www.nationaltrust.org.uk/visit/devon/finch-foundry,Castles,4
6150,Penbryn,near Cardigan,Ceredigion,52.139237,-4.491561,One of Ceredigion’s best-kept secrets  | Un o gyfrinachau gorau Ceredigion,https://www.nationaltrust.org.uk/visit/wales/penbryn,Castles,4
92,Coleton Fishacre,Kingswear,Devon,50.345299,-3.53439,A 1920s country retreat complete with tropical garden by the sea,https://www.nationaltrust.org.uk/visit/devon/coleton-fishacre,Historic houses/mansions,3
152,Greenway,near Brixham,Devon,50.382401,-3.5872,Greenway house and garden: 'the loveliest place in the world',https://www.nationaltrust.org.uk/visit/devon/greenway,Historic houses/mansions,3
259,Penrhyn Castle and Garden,Bangor,Gwynedd,53.217338,-4.1013778,Castell ffantasi gyda sylfeini diwydiannol a threfedigaethol | Fantasy castle with industrial and colonial foundations ,https://www.nationaltrust.org.uk/visit/wales/penrhyn-castle-and-garden,Castles,4
5203,Brownstone and Coleton Camp,,Devon,50.338755,-3.547343,Rugged and captivating stretch of coast with secluded beaches,https://www.nationaltrust.org.uk/visit/devon/brownstone-and-coleton-camp,Coastline,5
4528,Baggy Point,Croyde,Devon,51.136017,-4.245381,The impressive headland at Croyde with crashing waves and dramatic cliffs,https://www.nationaltrust.org.uk/visit/devon/baggy-point,Coastline,5
5159,Arnside and Silverdale,near Arnside,Cumbria,54.189403,-2.844373,A place to explore miles of coastal countryside from clifftops to woodland and wildflower meadows.,https://www.nationaltrust.org.uk/visit/lake-district/arnside-and-silverdale,Forests/Woodlands,5
6080,Little Dartmouth,Dartmouth,Devon,50.333683,-3.57502,"A gentle coastal landscape west of Dartmouth with wonderful views, wild flowers and the ruins of a Civil War encampment",https://www.nationaltrust.org.uk/visit/devon/little-dartmouth,Coastline,5
900030,Glan Faenol,Bangor,Gwynedd,53.204951,-4.196569," Discover the seasonal splendour on the many paths that take you through various woodlands, parkland and up close to the Menai Strait. | Darganfyddwch yr ysblander tymhorol ar y llu o lwybrau sy’n mynd â chi drwy’r gwahanol goetiroedd, parcdir ac yn agos at Afon Menai.  ",https://www.nationaltrust.org.uk/visit/wales/glan-faenol,Forests/Woodlands,5
900031,Coed Môr,,Sir Fôn,53.222475,-4.183756,Discover the peaceful woodland on the northern shores of the Menai Strait. | Darganfyddwch goetir heddychlon Coed Môr ar lan y Fenai. ,https://www.nationaltrust.org.uk/visit/wales/coed-mor,Forests/Woodlands,5
300,Sizergh,near Kendal,Cumbria,54.284168,-2.7716124,Beautiful medieval house with rich gardens and estate,https://www.nationaltrust.org.uk/visit/lake-district/sizergh,Historic houses/mansions,3
263,Plas Newydd House and Garden,Llanfairpwll,Anglesey,53.202599,-4.21541,"Plasty a gerddi hudolus, gyda golygfeydd godidog o Eryri. | Enchanting mansion and gardens, with spectacular views of Snowdonia. ",https://www.nationaltrust.org.uk/visit/wales/plas-newydd-house-and-garden,Historic houses/mansions,3
900028,Dinas Dinlle,near Caernarfon,Gwynedd,53.084117,-4.335902,"A prehistoric coastal hillfort, with dramatic coastal views, dating back to the Iron Age | Bryngaer arfordirol cynhanesyddol yn dyddio’n ôl i Oes yr Haearn",https://www.nationaltrust.org.uk/visit/wales/dinas-dinlle,Moors/Hills,4
78,Cilgerran Castle,near Cardigan,Pembrokeshire,52.0574,-4.63413,Uncover nearly 800 years of history at the magnificent Cilgerran Castle. This striking 13th-century fortress is perched overlooking the spectacular Teifi Gorge. Cilgerran Castle is in the guardianship of Cadw - Welsh Assembly Government’s historic environment service.  |   Dewch i ddarganfod bron i 800 mlynedd o hanes yng nghastell godidog Cilgerran. Mae’r gaer drawiadol hon o’r 13eg ganrif yn tremio dros geunant trawiadol Teifi. Mae Castell Cilgerran yng ngofal Cadw - gwasanaeth amgylchedd hanesyddol Llywodraeth Cynulliad Cymru.,https://www.nationaltrust.org.uk/visit/wales/cilgerran-castle,Castles,4
6146,Mwnt,near Cardigan,,52.1354,-4.64063,Beautiful secluded bay with a sandy beach | Bae diarffordd hardd gyda thraeth tywodlyd,https://www.nationaltrust.org.uk/visit/wales/mwnt,Coastline,5
6148,Llanbedrog beach,,Gwynedd,52.857872,-4.484416,A sheltered sandy beach with colourful beach huts overlooking Cardigan Bay.,https://www.nationaltrust.org.uk/visit/wales/llanbedrog-beach,Coastline,5
900033,Morfa and Nant Bach,,Gwynedd,52.99772,-4.421594,A rocky coastline and pebble beach dominated by what was once the world’s biggest granite quarry. | Arfordir creigiog a thraeth cerrig mân yng nghysgod gweddillion hen chwarel wenithfaen a fu unwaith yr un fwyaf yn y byd.   ,https://www.nationaltrust.org.uk/visit/wales/morfa-and-nant-bach,Coastline,5
128,Fell Foot,Windermere,Cumbria,54.27402,-2.952607,Lakeshore park with stunning mountain views,https://www.nationaltrust.org.uk/visit/lake-district/fell-foot,Coastline,5
103,Dalton Castle,Dalton-in-Furness,Cumbria,54.153801,-3.18896,14th-century tower built to assert the authority of the Abbot of Furness Abbey,https://www.nationaltrust.org.uk/visit/lake-district/dalton-castle,Historic houses/mansions,3
900035,Pistyll,Pwllheli,Gwynedd,52.951053,-4.487515,Explore an historic landscape rich in archaeology and wildlife on Llŷn’s northern coast. | Tirwedd hanesyddol sy’n gyforiog o archeoleg a bywyd gwyllt ar arfordir gogleddol Llŷn.,https://www.nationaltrust.org.uk/visit/wales/pistyll,Coastline,5
87,Colby Woodland Garden,near Amroth,Pembrokeshire,51.742001,-4.67168,"Colby’s hidden wooded valley is full of surprises. With an industrial past and a secret garden, it’s the perfect place for heritage hunting and natural play.      |    Mae dyffryn coediog cudd Colby yn llawn rhyfeddodau annisgwyl. Gyda’i orffennol diwydiannol a’i ardd gudd, mae’n lle perffaith i ddysgu am dreftadaeth a chwarae ym myd natur.   ",https://www.nationaltrust.org.uk/visit/wales/colby-woodland-garden,Forests/Woodlands,5
5082,Dunsland,"Holemoor, Nr Holsworthy",Devon,50.825348,-4.258894,A grand Parkland abundant in wildlife and with over 900 years of history,https://www.nationaltrust.org.uk/visit/devon/dunsland,Parks and open spaces,3
217,Lydford Gorge,near Tavistock,Devon,50.641089,-4.1102412,"The deepest river gorge in the South West, with 30m high waterfall",https://www.nationaltrust.org.uk/visit/devon/lydford-gorge,Historic houses/mansions,3
5162,Sandscale Haws National Nature Reserve,near Barrow-in-Furness,Cumbria,54.170756,-3.225736,Outstanding dune habitat supporting a wealth of wildlife and with magnificent views across the Duddon Estuary onto the Lakeland Fells.,https://www.nationaltrust.org.uk/visit/lake-district/sandscale-haws-national-nature-reserve,Historic houses/mansions,3
339,Tudor Merchant's House,Tenby,Pembrokeshire,51.671299,-4.69714,Time travel to Tudor Tenby and discover what life was like at our 15th century merchant's house.   |   Ewch yn ôl mewn amser i dŷ’r masnachwr o’r 15fed ganrif i weld sut roedd pobl yn byw yn Ninbych-y-pysgod yn Oes y Tuduriaidd.,https://www.nationaltrust.org.uk/visit/wales/tudor-merchants-house,Historic houses/mansions,3
6171,Durham Coast,Seaham,County Durham,54.823619,-1.322313,County Durham's coastline has evolved from its industrial past to become a haven for wildlife,https://www.nationaltrust.org.uk/visit/north-east/durham-coast,Coastline,5
264,Plas yn Rhiw,Pwllheli,Gwynedd,52.823399,-4.616,Delightful manor house with ornamental garden and wonderful views. | Maenordy hyfryd gyda gardd addurniadol a golygfeydd bendigedig.,https://www.nationaltrust.org.uk/visit/wales/plas-yn-rhiw,Historic houses/mansions,3
5060,Bideford Bay and Hartland,Hartland nr Bideford,Devon,51.013201,-4.443378,Miles of unspoilt coastline that inspired Rudyard Kipling,https://www.nationaltrust.org.uk/visit/devon/bideford-bay-and-hartland,Coastline,5
900023,Crook Hall Gardens,,Durham,54.782583,-1.575158,"Characterful gardens on the edge of Durham city, set against the backdrop of a medieval hall.",https://www.nationaltrust.org.uk/visit/north-east/crook-hall-gardens,Historic houses/mansions,3
5201,Porthdinllaen,,Gwynedd,52.942939,-4.567633,An old fishing village perched on the end of a thin ribbon of land stretching into the Irish Sea,https://www.nationaltrust.org.uk/visit/wales/porthdinllaen,Historic houses/mansions,3
169,Claife Viewing Station and Windermere West Shore,Hawkshead,Cumbria,54.351458,-2.942319,Colourful Viewing Station with endless lake views and waterside paths,https://www.nationaltrust.org.uk/visit/lake-district/claife-viewing-station-and-windermere-west-shore,Historic houses/mansions,3
174,Hill Top,,Cumbria,54.351101,-2.97054,Beatrix Potter's farmhouse retreat: the inspiration for her little books. ,https://www.nationaltrust.org.uk/visit/lake-district/hill-top,Farmland,3
6083,Mill Bay,East Portlemouth,Devon,50.229439,-3.7666917,"Unspoilt, wild coastline with turquoise waters and golden beaches",https://www.nationaltrust.org.uk/visit/devon/mill-bay,Coastline,5
6218,Cadover Bridge,,Devon,50.463626,-4.036676,Tranquil moorland by River Plym. Starting point for walks through ancient woodland or across open moors and tors.,https://www.nationaltrust.org.uk/visit/devon/cadover-bridge,Forests/Woodlands,5
6209,Windermere and Footprint,Windermere,Cumbria,54.389002,-2.9117954,A truly inspirational space,https://www.nationaltrust.org.uk/visit/lake-district/windermere-and-footprint,Historic houses/mansions,3
252,Overbeck's Garden at Sharpitor,Salcombe,Devon,50.2202,-3.78489,A hidden paradise of subtropical gardens,https://www.nationaltrust.org.uk/visit/devon/overbecks-garden,Castles,4
333,Townend,Windermere,Cumbria,54.412498,-2.91477,Atmospheric farmhouse full of quirky objects and fascinating stories,https://www.nationaltrust.org.uk/visit/lake-district/townend,Farmland,3
6236,Shaugh Bridge,,Devon,50.453951,-4.06731,Ancient oakwoods and mossy boulders cloak the Plym Valley; riverside walks pass the atmospheric Dewerstone Rocks and industrial ruins.,https://www.nationaltrust.org.uk/visit/devon/shaugh-bridge,Forests/Woodlands,5
794,South Milton Sands,near Kingsbridge,Devon,50.259597,-3.857038,"A long sweep of golden sand and rock pools, with crystal-clear waters and iconic rock archway",https://www.nationaltrust.org.uk/visit/devon/south-milton-sands,Castles,4
6144,Porth y Swnt,Pwllheli,,52.804818,-4.7116944,"Come in and explore, learn, reflect and enjoy the natural environment. | Dewch i archwilio, dysgu, myfyrio a mwynhau'r amgylchedd naturiol.",https://www.nationaltrust.org.uk/visit/wales/porth-y-swnt,Historic houses/mansions,3
6049,Wray,Ambleside,Cumbria,54.400611,-2.964237,Parkland and castle on the west shore of Windermere.,https://www.nationaltrust.org.uk/visit/lake-district/wray,Castles,4
2778,Bolberry Down,near Salcombe,Devon,50.223454,-3.827255,An easily accessible and wild stretch of coastline,https://www.nationaltrust.org.uk/visit/devon/bolberry-down,Coastline,5
6231,East Soar,near Malborough,Devon,50.2208852,-3.8274018,"A coastline of dramatic cliffs, open farmland and hidden sandy coves",https://www.nationaltrust.org.uk/visit/devon/east-soar,Coastline,5
6169,Porth Meudwy,Pwllheli,Gwynedd,52.7958355,-4.7247329,Man cychwynnol y Pererinion i Ynys Enlli l It was from here that the Pilgrims set out to Ynys Enlli (Bardsey Island),https://www.nationaltrust.org.uk/visit/wales/porth-meudwy,Castles,4
146,Historic Steam Yacht Gondola,Coniston,Cumbria,54.363899,-3.06483,The unrivalled sailing experience in the Lake District,https://www.nationaltrust.org.uk/visit/lake-district/steam-yacht-gondola,Historic houses/mansions,3
5220,Keld Chapel,Shap,Cumbria,54.523859,-2.691178,Remote medieval chapel,https://www.nationaltrust.org.uk/visit/lake-district/keld-chapel,Churches,4
5231,Stagshaw Garden and Ambleside,near Windermere,Cumbria,54.417745,-2.956934,Family fun and adventure in the heart of the English Lake District,https://www.nationaltrust.org.uk/visit/lake-district/stagshaw-garden-and-ambleside,Castles,4
5202,Porthor,,Gwynedd,52.832284,-4.7235739,Famous for its ‘whistling sands’ and glistening waters. ,https://www.nationaltrust.org.uk/visit/wales/porthor,Historic houses/mansions,3
57,Buckland Abbey,Yelverton,Devon,50.48139,-4.13374,"Discovery, tranquillity and history – an ancient gem in the Tavy Valley landscape",https://www.nationaltrust.org.uk/visit/devon/buckland-abbey,Historic houses/mansions,3
4554,Tarn Hows and Coniston,near Coniston,Cumbria,54.387268,-3.038192,Majestic views and peaceful walks in beautiful countryside,https://www.nationaltrust.org.uk/visit/lake-district/tarn-hows-and-coniston,Historic houses/mansions,3
5423,Plymbridge Woods,Plympton,Devon,50.4089,-4.0786,A wooded valley opening up to the moors of Dartmoor with a rich and varied industrious past,https://www.nationaltrust.org.uk/visit/devon/plymbridge-woods,Forests/Woodlands,5
900032,Mynydd Mawr and Braich y Pwll,Aberdaron,Gwynedd,52.798201,-4.760568,"Walk the coastal path at Mynydd Mawr and Braich y Pwll near Aberdaron, with views overlooking Bardsey Island and the Llŷn Peninsula. | Cerddwch ar hyd llwybr yr arfordir ym Mynydd Mawr a Braich y Pwll ger Aberdaron, gyda golygfeydd yn edrych dros Ynys Enlli a Phen Llŷn.",https://www.nationaltrust.org.uk/visit/wales/mynydd-mawr-and-braich-y-pwll,Coastline,5
6130,Penshaw Monument,Penshaw,Tyne & Wear,54.883243,-1.48092,Stunning views from this 70-foot high monument,https://www.nationaltrust.org.uk/visit/north-east/penshaw-monument,Historic houses/mansions,3
214,Lundy,,Devon,51.1735,-4.67047,"Unspoilt island, home to a fascinating array of wildlife amidst dramatic scenery",https://www.nationaltrust.org.uk/visit/devon/lundy,Castles,4
6018,Cleddau Woodlands,West Williamston: SA68 0TL,,51.719232,-4.878005,"Follow the Cleddau waterway through tranquil, ancient woodland, expansive salt marsh and heritage-rich tidal creeks. Its journey from river to estuary is as peaceful and picturesque as they come.     |     Dilynwch ddyfrffordd Cleddau drwy goetir hynafol tawel, morfa heli eang a chilfachau llanwol llawn treftadaeth. Mae ei thaith o’r afon i’r aber yn llonydd hyfryd ac yn hynod bictwrésg.",https://www.nationaltrust.org.uk/visit/wales/cleddau-woodlands,Forests/Woodlands,5
289,Saltram,Plymouth,Devon,50.3815,-4.08548,"A house full of treasures, stories & intrigue. A garden with year round splendour, plus a park that cyclists, walkers, & our four legged friends love.",https://www.nationaltrust.org.uk/visit/devon/saltram,Parks and open spaces,3
6229,Morwenstow,,Cornwall,50.908706,-4.553768,A fascinating area of coast steeped in a history dominated by Parson Hawker,https://www.nationaltrust.org.uk/visit/cornwall/morwenstow,Coastline,5
354,Washington Old Hall,Washington,Tyne & Wear,54.9028,-1.5165,"Manor house associated with the family of George Washington, first president of the USA",https://www.nationaltrust.org.uk/visit/north-east/washington-old-hall,Historic houses/mansions,3
96,Cotehele,near Saltash,Cornwall,50.494301,-4.22487,"An atmospheric Tudor house with Medieval roots, a mill on a historic quay, a glorious garden with valley views and an expansive estate to explore. ",https://www.nationaltrust.org.uk/visit/cornwall/cotehele,Historic houses/mansions,3
900034,Cemaes to Llanbadrig,,Sir Fôn,53.415269,-4.446692,"Part of an Area of Outstanding Natural Beauty and the most northernly part of Wales. |  Y pwynt mwyaf gogleddol yng Nghymru, mae'r rhan yma o Fôn yn rhan o Ardal o Harddwch Naturiol Eithriadol ",https://www.nationaltrust.org.uk/visit/wales/cemaes-to-llanbadrig,Castles,4
199,Lawrence House,Launceston,Cornwall,50.638307,-4.3623079,Beautiful Georgian town house,https://www.nationaltrust.org.uk/visit/cornwall/lawrence-house,Historic houses/mansions,3
653,Cotehele Mill,near Saltash,Cornwall,50.492164,-4.233089,A Victorian watermill and workshops nestled in a wooded valley,https://www.nationaltrust.org.uk/visit/cornwall/cotehele-mill,Mills,3
6227,Duckpool,,Cornwall,50.87657,-4.557695,A remote beach with rock pools overlooked by cliffs often carpeted with wild flowers.,https://www.nationaltrust.org.uk/visit/cornwall/duckpool,Coastline,5
5215,Allan Bank and Grasmere,Ambleside,Cumbria,54.460536,-3.029754,The loveliest spot that man hath ever found,https://www.nationaltrust.org.uk/visit/lake-district/allan-bank-and-grasmere,Castles,4
5414,Sandymouth,,Cornwall,50.861586,-4.553875,A popular but unspoilt beach of pebbles and sand backed by incredible twisted cliffs.,https://www.nationaltrust.org.uk/visit/cornwall/sandymouth,Coastline,5
6228,Northcott Mouth,,Cornwall,50.847404,-4.553248,This small rocky beach opens up to expansive sand and rock pools as the tide drops.,https://www.nationaltrust.org.uk/visit/cornwall/northcott-mouth,Coastline,5
246,Wembury,Wembury,Devon,50.316836,-4.084386,"A spectacular stretch of coastline boasting dramatic cliffs, diverse wildlife and a beach renowned for rockpooling",https://www.nationaltrust.org.uk/visit/devon/wembury,Coastline,5
5,Acorn Bank,near Penrith,Cumbria,54.646301,-2.59228,Delightful garden renowned for its herbs and fruit orchards,https://www.nationaltrust.org.uk/visit/lake-district/acorn-bank,Orchards,2
5216,The Langdales,near Ambleside,Cumbria,54.44897,-3.0902951,"An adventure playground of meandering trails, rugged slopes, craggy summits",https://www.nationaltrust.org.uk/visit/lake-district/the-langdales,Trails/Footpaths,2
611,Stackpole,near Pembroke,Pembrokeshire,51.612813,-4.926159,"Discover Stackpole’s beautiful stretch of coastline for yourself. With award-winning sandy beaches, tranquil wooded valleys, wildlife-rich lily ponds, walking trails and watersports, there’s lots to see and do.   |    Dewch i ddarganfod y darn hyfryd o arfordir yn Ystagbwll. Gyda thraethau euraidd arobryn, dyffrynnoedd coediog tawel, pyllau lili llawn bywyd gwyllt, llwybrau cerdded a chwaraeon dŵr, mae digonedd i weld ac i wneud.",https://www.nationaltrust.org.uk/visit/wales/stackpole-estate,Pubs,2
304,Souter Lighthouse and The Leas,Whitburn,Tyne & Wear,54.967999,-1.36124,"A historic lighthouse overlooking nature-rich clifftop grasslands, coastal park and rugged coastline.",https://www.nationaltrust.org.uk/visit/north-east/souter-lighthouse-and-the-leas,Coastline,5
6190,Cemlyn,Cemaes Bay,Anglesey,53.412223,-4.5154109,"A ruggedly beautiful coastline of rocks, small bays and headlands to delight walkers. Area of Outstanding Natural Beauty.",https://www.nationaltrust.org.uk/visit/wales/cemlyn,Coastline,5
6187,Eskdale and Duddon Valley,,Cumbria,54.39935,-3.26743,Valleys of many delights,https://www.nationaltrust.org.uk/visit/lake-district/eskdale-and-duddon-valley,Historic houses/mansions,3
142,Gibside,Gateshead,Tyne & Wear,54.920502,-1.73174,A Georgian landscape garden forged in an industrial past.,https://www.nationaltrust.org.uk/visit/north-east/gibside,Historic houses/mansions,3
900026,Porth Dafarch,,Sir Fôn,53.287687,-4.650223,"A sheltered beach on the West side of Anglsey’s Holy island, boasting incredible views towards Llŷn and Eryri (Snowdonia). |  Traeth cysgodol ar ochr orllewinol Ynys Gybi, gyda golygfeydd anhygoel i gyfeiriad Llŷn ac Eryri ",https://www.nationaltrust.org.uk/visit/wales/porth-dafarch,Coastline,5
10,Antony,Torpoint,Cornwall,50.3848,-4.22563,"18th-Century house set within a magnificent landscape garden, still home to the Carew Pole family",https://www.nationaltrust.org.uk/visit/cornwall/antony,Historic houses/mansions,3
90014,Cadsonbury,Callington,Cornwall,50.4827358,-4.3363974,A peaceful woodland within the Lynher Valley with far reaching views at the summit of the hillfort,https://www.nationaltrust.org.uk/visit/cornwall/cadsonbury,Forests/Woodlands,5
343,Aira Force and Gowbarrow Park,Penrith,Cumbria,54.5751,-2.92949,Aira Force is a showcase for the power and beauty of nature; it’s a place to escape the ordinary.,https://www.nationaltrust.org.uk/visit/lake-district/aira-force-and-gowbarrow-park,Historic houses/mansions,3
6017,Strumble Head to Cardigan,"Strumble Head, Pencaer to Cardigan",Pembrokeshire,52.006828,-5.064023,"Pick up the pace in Pembrokeshire’s walking country; this rugged and remote expanse of towering cliffs and rocky outcrops is punctuated with coastal paths and soaring sea views.   |     Camwch yn gynt ar lwybrau cefn gwlad Sir Benfro; ymysg yr ehangder garw, anghysbell hwn o glogwyni uchel a cherrig brig, ceir llwybrau arfordirol a golygfeydd di-ben draw ar y môr.",https://www.nationaltrust.org.uk/visit/wales/strumble-head-to-cardigan,Coastline,5
6245,Freshwater West and Gupton Farm,,Pembrokeshire,51.65007,-5.04454,"Wild, sandy stretch adored by adventurous souls and nature lovers .  |   Llecyn gwyllt, euraidd sy’n ffefryn gan eneidiau anturus a rhai sy’n caru natur.",https://www.nationaltrust.org.uk/visit/wales/freshwater-west-and-gupton-farm,Historic houses/mansions,3
353,Wasdale,near Seascale,Cumbria,54.45607,-3.26293,Towering mountains and the deepest lake in England,https://www.nationaltrust.org.uk/visit/lake-district/wasdale,Historic houses/mansions,3
6206,Southwood Estate,"Newgale, Roch",Pembrokeshire,51.8509,-5.1142,"Explore Southwood’s timeless landscape of wooded valleys, floral fields and craggy clifftops. Stretching straight to the sea, this charming coastal spot is full of scenic surprises.    |    Dewch i grwydro’r dirwedd ddigyfnewid o ddyffrynnoedd coediog, caeau blodau a chlogwyni geirwon yn Southwood. Yn ymestyn yn syth i’r môr, mae’r llecyn arfordirol hudolus hwn yn wledd o olygfeydd rhyfeddol.",https://www.nationaltrust.org.uk/visit/wales/southwood-estate,Forests/Woodlands,5
75,Cherryburn,Stocksfield,Northumberland,54.957001,-1.88361,"Cottage and farmhouse, the birthplace of Thomas Bewick",https://www.nationaltrust.org.uk/visit/north-east/cherryburn,Cottages,2
140,George Stephenson's Birthplace,near Wylam,Northumberland,54.979287,-1.80473,Birthplace of the world-famous railway engineer,https://www.nationaltrust.org.uk/visit/north-east/george-stephensons-birthplace,Castles,4
60,Buttermere Valley,near Cockermouth,Cumbria,54.51402,-3.27848,"Tranquil area of dramatic fells, farms and woodland, encompassing three lakes",https://www.nationaltrust.org.uk/visit/lake-district/buttermere-valley,Forests/Woodlands,5
38,Borrowdale and Derwent Water,near Keswick,Cumbria,54.58304,-3.12789,Spectacular and varied lakeland landscape around Derwent Water,https://www.nationaltrust.org.uk/visit/lake-district/borrowdale-and-derwent-water,Historic houses/mansions,3
5410,Solva Coast,Caerfi to Newgale,Pembrokeshire,51.874002,-5.188659,"Solva’s jutting headlands, gentle valleys and sweeping shores all have a tale to tell. From Iron Age settlements and industry to chilling coastal chronicles, there’s lots to uncover.   |     Mae stori i bob un o  bentiroedd ymwthiol, dyffrynnoedd esmwyth a glannau eang Solfach. O aneddiadau a diwydiant yr Oes Haearn i groniclau arfordirol iasol – mae digonedd i’w ddarganfod.",https://www.nationaltrust.org.uk/visit/wales/solva-coast,Moors/Hills,4
5409,Abereiddi to Abermawr,,,51.93824,-5.207767,"Blue Lagoon, beaches, rocks and ruins; this wild stretch of coastline is where industry and adventure combine. Dive right into the past and see how stone quarries have paved the way for thrill-seekers.    |    Morlyn glas, traethau, creigiau ac adfeilion; ar hyd yr arfordir gwyllt hwn mae diwydiant ac antur yn cwrdd. Plymiwch yn ddwfn i’r gorffennol i weld sut mae chwareli wedi paratoi’r ffordd ar gyfer rhai sy’n hoff o gyffro.",https://www.nationaltrust.org.uk/visit/wales/abereiddi-to-abermawr,Coastline,5
4032,Seaton Delaval Hall,Seaton Sluice,Northumberland,55.082846,-1.496508,"A place of great theatricality, drama and mischief",https://www.nationaltrust.org.uk/visit/north-east/seaton-delaval-hall,Historic houses/mansions,3
43,Boscastle,,Cornwall,50.690528,-4.6946833,A sheltered natural inlet with an unspoilt harbour village,https://www.nationaltrust.org.uk/visit/cornwall/boscastle,Castles,4
5105,Marloes Sands and Mere,,Pembrokeshire,51.726572,-5.218818,"Escape to the Marloes Peninsula, a hidden gem nestled on the very western edge of Pembrokeshire. Stunning seascapes and a wealth of wildlife are waiting to greet you.    |      Dihangwch i Benrhyn Marloes, trysor cudd ar ymyl gorllewinol Sir Benfro. Bydd morweddau ysblennydd a chyfoeth o fywyd gwyllt yn aros i’ch cyfarch.",https://www.nationaltrust.org.uk/visit/wales/marloes-sands-and-mere,Historic houses/mansions,3
655,The St David’s Visitor Centre and Shop,St David's,Pembrokeshire,51.880299,-5.26292,"Nestled in St David’s, the visitor centre and shop is a brilliant base for discovering Pembrokeshire. Plan your visit with the team, have a browse and help support our special places.    |    Canolfan Ymwelwyr a Siop Tyddewi ar stryd fawr Tyddewi, Sir Benfro.  Mae’r ganolfan ymwelwyr a’r siop yn Nhyddewi yn lle gwych i ddechrau darganfod Sir Benfro. Gallwch gynllunio eich ymweliad gyda’n tîm, cael golwg o gwmpas a helpu i gefnogi ein lleoedd arbennig.",https://www.nationaltrust.org.uk/visit/wales/st-davids-peninsula-visitor-centre-and-shop,Shops,2
6196,Ennerdale,Cleator Moor,Cumbria,54.524792,-3.414473,Home of the Wild Ennerdale project with 30 miles of traffic-free paths,https://www.nationaltrust.org.uk/visit/lake-district/ennerdale,Historic houses/mansions,3
5133,St David's Peninsula,St David's Peninsula,Pembrokeshire,51.880868,-5.26617,"A colourful coastline with heaps of history, this pretty peninsula’s been a cultural hotspot for thousands of years. Discover the area’s ancestry, from Celtic life to Wales’ patron saint.    |    Gyda’i forlin lliwgar a’i hanes cyfoethog, mae’r penrhyn hardd hwn wedi bod yn ganolbwynt diwylliannol ers miloedd o flynyddoedd. Dewch i ddarganfod hanes hynafiaid yr ardal, o fywyd y Celtiaid i nawddsant Cymru. ",https://www.nationaltrust.org.uk/visit/wales/st-davids-peninsula,Coastline,5
330,Tintagel Old Post Office,Tintagel,Cornwall,50.663371,-4.751645,"One of the Trust's most delightful medieval buildings, enhanced by a cottage garden",https://www.nationaltrust.org.uk/visit/cornwall/tintagel-old-post-office,Cottages,2
7,Allen Banks and Staward Gorge,Hexham,Northumberland,54.9709,-2.31704,Gorge of the River Allen with ornamental and ancient woodland,https://www.nationaltrust.org.uk/visit/north-east/allen-banks-and-staward-gorge,Forests/Woodlands,5
6097,Lansallos,Looe,Cornwall,50.33766,-4.5681627,A wild and quiet Cornish landscape,https://www.nationaltrust.org.uk/visit/cornwall/lansallos,Historic houses/mansions,3
157,Hadrian's Wall and Housesteads Fort,Hexham,Northumberland,55.013199,-2.32881,Roman wall running through an often wild landscape,https://www.nationaltrust.org.uk/visit/north-east/hadrians-wall-and-housesteads-fort,Historic houses/mansions,3
198,Lanhydrock,Bodmin,Cornwall,50.450248,-4.694002,Magnificent late Victorian country house with garden and wooded estate.,https://www.nationaltrust.org.uk/visit/cornwall/lanhydrock,Historic houses/mansions,3
6223,Lantivet Bay,Lanteglos by Fowey,Cornwall,50.336196,-4.590936,"Coastal walks, wide open views and hidden coves",https://www.nationaltrust.org.uk/visit/cornwall/lantivet-bay,Coastline,5
6188,Whitehaven Coast,Whitehaven,Cumbria,54.543763,-3.598891,There are hidden gems of history and wildlife along this post-industrial coastline,https://www.nationaltrust.org.uk/visit/lake-district/whitehaven-coast,Coastline,5
6222,Lantic Bay,,Cornwall,50.333005,-4.6013886,"Large shingly beach on a beautiful bay, great spot for paddling and picnicking, well worth the climb back up.",https://www.nationaltrust.org.uk/visit/cornwall/lantic-bay,Coastline,5
382,Wordsworth House and Garden,Cockermouth,Cumbria,54.663601,-3.36678,William Wordsworth’s childhood home,https://www.nationaltrust.org.uk/visit/lake-district/wordsworth-house-and-garden,Historic houses/mansions,3
5425,Port Quin,near Polzeath,Cornwall,50.588931,-4.866948,A peaceful sheltered inlet on an outstanding stretch of unspoilt coast,https://www.nationaltrust.org.uk/visit/cornwall/port-quin,Coastline,5
352,Wallington,near Morpeth,Northumberland,55.1507,-1.95144,"Discover Wallington, where a historical house meets rolling hills, woodlands and a walled garden.",https://www.nationaltrust.org.uk/visit/north-east/wallington,Kitchen gardens,3
900010,Pentire,near Wadebridge,Cornwall,50.581861,-4.9057721,Pentire is an exceptionally beautiful headland with far reaching views and managed for wildlife.,https://www.nationaltrust.org.uk/visit/cornwall/pentire,Historic houses/mansions,3
90002,Trevose Head,near Padstow,Cornwall,50.546834,-5.0341244,"Jutting into the Atlantic, Trevose Head commands views for miles along the coast",https://www.nationaltrust.org.uk/visit/cornwall/trevose-head,Coastline,5
98,Cragside,Morpeth,Northumberland,55.312599,-1.8817,Explore Britain's original smart home which sits at the heart of a grand designer garden.,https://www.nationaltrust.org.uk/visit/north-east/cragside,Historic houses/mansions,3
65,Carnewas at Bedruthan,near Padstow,Cornwall,50.481323,-5.0320612,Dramatic coastline with views over huge rock stacks,https://www.nationaltrust.org.uk/visit/cornwall/carnewas-at-bedruthan,Coastline,5
6134,The Dodman,St Austell,Cornwall,50.21985,-4.803553,"Towering above the sea, this historic headland offers dramatic, panoramic views",https://www.nationaltrust.org.uk/visit/cornwall/the-dodman,Historic houses/mansions,3
338,Trerice,near Newquay,Cornwall,50.38661,-5.03809,Elizabethan manor house with fine interiors and delightful garden,https://www.nationaltrust.org.uk/visit/cornwall/trerice,Historic houses/mansions,3
6230,Crantock Beach,near Newquay,Cornwall,50.407092,-5.113636,"An expanse of golden sand, great for sandcastles and surfing",https://www.nationaltrust.org.uk/visit/cornwall/crantock-beach,Castles,4
6142,Carne and Pendower,Truro,Cornwall,50.207385,-4.937177,Two amazing sandy beaches on the Roseland peninsula,https://www.nationaltrust.org.uk/visit/cornwall/carne-and-pendower,Coastline,5
5053,Holywell,near Newquay,Cornwall,50.385996,-5.1424974,A classic north Cornish beach with a sweep of golden sand and a towering dune system,https://www.nationaltrust.org.uk/visit/cornwall/holywell,Coastline,5
114,Dunstanburgh Castle,Alnwick,Northumberland,55.4911,-1.59632,"Iconic castle ruin, in an impressive coastal setting",https://www.nationaltrust.org.uk/visit/north-east/dunstanburgh-castle,Castles,4
336,Trelissick,near Truro,Cornwall,50.217241,-5.0337821,A welcoming house and garden set in an estate with stunning maritime views and lovely woodland walks.,https://www.nationaltrust.org.uk/visit/cornwall/trelissick,Historic houses/mansions,3
6224,Porth,,Cornwall,50.157783,-4.9867335,Creekside and coastal footpaths make for great walking and wildlife spotting. Towan beach at Porth is perfect for children.,https://www.nationaltrust.org.uk/visit/cornwall/porth,Coastline,5
5402,Embleton and Newton Links,Alnwick,Northumberland,55.512768,-1.618353,Breath-taking stretches of silver sands surrounded by wildlife-rich dunes,https://www.nationaltrust.org.uk/visit/north-east/embleton-and-newton-links,Historic houses/mansions,3
6192,St Anthony Head,Truro,Cornwall,50.141698,-5.0145383,Tucked away at the bottom of the Roseland there's lots to discover for everyone.,https://www.nationaltrust.org.uk/visit/cornwall/st-anthony-head,Castles,4
6137,St Agnes Head,St Agnes,Cornwall,50.31736,-5.2322227,Walk over a jewel-like carpet of heather and gorse,https://www.nationaltrust.org.uk/visit/cornwall/st-agnes-head,Historic houses/mansions,3
6249,Wheal Coates,St Agnes,Cornwall,50.306226,-5.2315736,Dramatic ruins on cliffs carpeted with heather and gorse.,https://www.nationaltrust.org.uk/visit/cornwall/wheal-coates,Coastline,5
6099,Chapel Porth,St Agnes,Cornwall,50.300003,-5.234277,"A wild but cosy beach, rich in heritage and legend. ",https://www.nationaltrust.org.uk/visit/cornwall/chapel-porth,Coastline,5
6214,Bosveal,,Cornwall,50.107933,-5.1134464,Tucked in wooded valleys and surprising views of the restful Helford River,https://www.nationaltrust.org.uk/visit/cornwall/bosveal,Forests/Woodlands,5
144,Glendurgan Garden,Falmouth,Cornwall,50.10914,-5.116531,A historic and exotic wooded valley garden leading down to the River Helford.,https://www.nationaltrust.org.uk/visit/cornwall/glendurgan-garden,Forests/Woodlands,5
126,Farne Islands,,Northumberland,55.616001,-1.6538,National Nature Reserve home to an internationally important breeding colony of thousands of seabirds and grey seals. ,https://www.nationaltrust.org.uk/visit/north-east/farne-islands,Nature reserves,5
95,East Pool Mine,near Redruth,Cornwall,50.231016,-5.262162,Impressive Cornish beam engine and industrial heritage at the heart of the Cornish Mining World Heritage Site. Open by pre-booked tours.,https://www.nationaltrust.org.uk/visit/cornwall/east-pool-mine,Historic houses/mansions,3
900040,Trevithick Cottage,Camborne,Cornwall,50.2029,-5.3122,In the mining heartland of Cornwall and once the home of Cornish mine engineer Richard Trevithick.,https://www.nationaltrust.org.uk/visit/cornwall/trevithick-cottage,Industrial buildings,3
2364,Godrevy,near Hayle,Cornwall,50.238321,-5.393736,"A vast sandy beach, high cliffs and dramatic coves.",https://www.nationaltrust.org.uk/visit/cornwall/godrevy,Coastline,5
202,Lindisfarne Castle,Berwick-upon-Tweed,Northumberland,55.6698,-1.78756,"A castle (that’s not a castle), on an island (that’s not an island).",https://www.nationaltrust.org.uk/visit/north-east/lindisfarne-castle,Castles,4
1130,Penrose,Helston,Cornwall,50.085971,-5.302186,"Wooded country around Cornwall's largest natural lake. Penrose features woodland tracks, stretches of coastline and open parkland, the perfect backdrop for a day out.",https://www.nationaltrust.org.uk/visit/cornwall/penrose,Forests/Woodlands,5
6155,Poldhu Cove,near Helston,Cornwall,50.03426,-5.259308,"A sandy sheltered beach with surf school on the west coast of the Lizard. A favourite amongst locals and visitors, surfers and wildlife watchers.",https://www.nationaltrust.org.uk/visit/cornwall/poldhu-cove,Coastline,5
145,Godolphin,Helston,Cornwall,50.1367,-5.36116,An ancient and atmospheric estate with a medieval garden and historic house,https://www.nationaltrust.org.uk/visit/cornwall/godolphin,Historic houses/mansions,3
6215,Gunwalloe,,Cornwall,50.041934,-5.2701813,"A site of archaeological importance surrounded by dunes, beaches, a medieval church and a reedbed rich in wildlife.",https://www.nationaltrust.org.uk/visit/cornwall/gunwalloe,Churches,4
6225,Mullion Cove,near Helston,Cornwall,50.015386,-5.257529,"Nestled between steep cliffs rich in wildlife, the calm turquoise sea of the cove often gives way to powerful storms, as it faces into the full force of the Atlantic.",https://www.nationaltrust.org.uk/visit/cornwall/mullion-cove,Coastline,5
207,Lizard Point,near Helston,Cornwall,49.961129,-5.204415,"Dramatic cliffs shaped by the Atlantic. The Lizard features white beaches, turquoise seas and unique nature.  ",https://www.nationaltrust.org.uk/visit/cornwall/lizard-point,Coastline,5
6226,Kynance Cove,Nr. Helston,Cornwall,49.97421,-5.2251121,"A tidal beach for the adventurous, famous for its white sand, turquoise sea and rock stacks. Extremely busy with limited parking throughout July, August & September. ",https://www.nationaltrust.org.uk/visit/cornwall/kynance-cove,Coastline,5
288,St Michael's Mount,Marazion,Cornwall,50.118099,-5.47565,"Rocky island crowned by medieval church and castle, home to a living community",https://www.nationaltrust.org.uk/visit/cornwall/st-michaels-mount,Castles,4
337,Trengwainton Garden,near Penzance,Cornwall,50.127899,-5.5695,Sheltered garden bursting with exotic trees and shrubs,https://www.nationaltrust.org.uk/visit/cornwall/trengwainton-garden,Historic houses/mansions,3
201,Levant Mine and Beam Engine,near St Just,Cornwall,50.151001,-5.6827,"High-up on the exposed cliffs of the 'Tin Coast' and part of the Cornish Mining World Heritage Site. At its heart, the restored 1840s beam engine running on steam. Open by pre-booked tours.",https://www.nationaltrust.org.uk/visit/cornwall/levant-mine-and-beam-engine,Coastline,5
6232,Botallack,near St Just,Cornwall,50.140729,-5.689126,"On the wild Tin Coast, the famed Crowns engine houses cling to the foot of the cliffs. Part of the Cornish Mining World Heritage Site and Poldark filming location.",https://www.nationaltrust.org.uk/visit/cornwall/botallack,Coastline,5
6100,Cape Cornwall,Penzance,Cornwall,50.127187,-5.7088012,The distinctive headland juts out into the ocean where two great bodies of water meet. Part of the Tin Coast and Cornish Mining World Heritage Site.,https://www.nationaltrust.org.uk/visit/cornwall/cape-cornwall,Coastline,5
6143,Porthcurno,Porthcurno,Cornwall,50.0473,-5.6558,Exceptionally beautiful beach on a turquoise bay backed by granite cliffs.,https://www.nationaltrust.org.uk/visit/cornwall/porthcurno,Coastline,5
70,Castle Ward,Downpatrick,County Down,54.368301,-5.58034,"Unique 18th-century mansion, famed for its mixture of architectural styles",https://www.nationaltrust.org.uk/visit/northern-ireland/castle-ward,Historic houses/mansions,3
5045,Strangford Lough,Strangford,County Down,54.373741,-5.579002,A most beautiful landscape of international importance,https://www.nationaltrust.org.uk/visit/northern-ireland/strangford-lough,Castles,4
543,Murlough National Nature Reserve,Dundrum,County Down,54.234,-5.8636,An extraordinarily beautiful dune landscape,https://www.nationaltrust.org.uk/visit/northern-ireland/murlough-national-nature-reserve,Castles,4
236,Mount Stewart,Newtownards,County Down,54.551498,-5.60127,"Neo-classical house, celebrated gardens and demesne",https://www.nationaltrust.org.uk/visit/northern-ireland/mount-stewart,Historic houses/mansions,3
5037,The Mournes,near Newcastle,County Down,54.171137,-6.083736,The most famous of the mountains in the country,https://www.nationaltrust.org.uk/visit/northern-ireland/the-mournes,Castles,4
281,Rowallane Garden,Saintfield,County Down,54.447102,-5.82684,"A garden for everyone, for every season. ",https://www.nationaltrust.org.uk/visit/northern-ireland/rowallane-garden,Castles,4
6115,Lisnabreeny and Cregagh Glen,Belfast,County Down,54.561886,-5.8889723,A picturesque walk from wooded glen to hilltop rath,https://www.nationaltrust.org.uk/visit/northern-ireland/lisnabreeny-and-cregagh-glen,Forests/Woodlands,5
5036,Minnowburn,Belfast,County Down,54.548434,-5.9526157,"Close to the city, in the heart of the country",https://www.nationaltrust.org.uk/visit/northern-ireland/minnowburn,Historic houses/mansions,3
102,The Crown Bar,Belfast,County Antrim,54.5947,-5.9342,The most famous pub in Belfast,https://www.nationaltrust.org.uk/visit/northern-ireland/the-crown-bar,Pubs,2
104,Derrymore House,Newry,County Armagh,54.189943,-6.38358,Late 18th-century thatched house in gentrified vernacular style,https://www.nationaltrust.org.uk/visit/northern-ireland/derrymore-house,Cottages,2
5029,Islandmagee,Islandmagee,County Antrim,54.847016,-5.7272294,A haven on the east coast of County Antrim,https://www.nationaltrust.org.uk/visit/northern-ireland/islandmagee,Coastline,5
2546,Divis and the Black Mountain,near Belfast,County Antrim,54.60074,-6.041651,Divis and the Black Mountain offers a spectacular viewpoint for walkers seeking panoramic views over Belfast and beyond,https://www.nationaltrust.org.uk/visit/northern-ireland/divis-and-the-black-mountain,Historic houses/mansions,3
6114,Glenoe,Gleno,County Antrim,54.799617,-5.832079,A beautiful waterfall nestling in the glens of Antrim,https://www.nationaltrust.org.uk/visit/northern-ireland/glenoe,Castles,4
256,Patterson's Spade Mill,Templepatrick,County Antrim,54.700777,-6.043718,The last working water-driven spade mill in daily use in the British Isles,https://www.nationaltrust.org.uk/visit/northern-ireland/pattersons-spade-mill,Mills,3
6117,Templetown Mausoleum,Templepatrick,County Antrim,54.706,-6.095,The finest example in Ireland of Robert Adam's neoclassical architecture,https://www.nationaltrust.org.uk/visit/northern-ireland/templetown-mausoleum,Castles,4
11,Ardress House,Portadown,County Armagh,54.445535,-6.591778,17th-century house with elegant 18th-century decoration and a traditional farmyard,https://www.nationaltrust.org.uk/visit/northern-ireland/ardress-house,Farmland,3
13,The Argory,Dungannon,County Armagh,54.464905,-6.657732,Atmospheric Irish gentry house and wooded riverside estate,https://www.nationaltrust.org.uk/visit/northern-ireland/the-argory,Historic houses/mansions,3
6213,Cushendun,Cushendun,County Antrim,55.12805,-6.04349,"Situated in the heart of the Glens of Antrim, Cushendun is a village steeped in character and folklore",https://www.nationaltrust.org.uk/visit/northern-ireland/cushendun,Castles,4
307,Springhill,Magherafelt,County Londonderry,54.68729,-6.657566,A pretty 17th-century plantation house with walled garden,https://www.nationaltrust.org.uk/visit/northern-ireland/springhill,Kitchen gardens,3
357,Wellbrook Beetling Mill,Cookstown,County Tyrone,54.655052,-6.839538,Working water-powered mill used in the manufacture of linen,https://www.nationaltrust.org.uk/visit/northern-ireland/wellbrook-beetling-mill,Mills,3
407,Carrick-a-Rede,Ballintoy,County Antrim,55.236698,-6.3328,Carrick-a-Rede Rope Bridge was first erected by salmon fishermen in 1755,https://www.nationaltrust.org.uk/visit/northern-ireland/carrick-a-rede,Historic houses/mansions,3
100,Crom,Newtownbutler,County Fermanagh,54.162601,-7.44284,"Tranquil landscape of islands, woodland and historical ruins",https://www.nationaltrust.org.uk/visit/northern-ireland/crom,Forests/Woodlands,5
5048,White Park Bay,,County Antrim,55.2289,-6.40669,Beautiful stretch of golden sand on the North Antrim coast,https://www.nationaltrust.org.uk/visit/northern-ireland/white-park-bay,Coastline,5
141,Giant's Causeway,Bushmills,County Antrim,55.240807,-6.511572,Follow in the legendary footsteps of giants at Northern Ireland's iconic World Heritage Site. ,https://www.nationaltrust.org.uk/visit/northern-ireland/giants-causeway,Castles,4
559,Portstewart Strand,Portstewart,County Londonderry,55.172117,-6.724648,Miles of golden sand,https://www.nationaltrust.org.uk/visit/northern-ireland/portstewart-strand,Castles,4
67,Castle Coole,Enniskillen,County Fermanagh,54.336184,-7.624401,Magnificent 18th-century mansion and landscape park,https://www.nationaltrust.org.uk/visit/northern-ireland/castle-coole,Historic houses/mansions,3
110,Mussenden Temple and Downhill Demesne,Castlerock,County Londonderry,55.16789,-6.81085,Visit this stunning landscape and beautiful gardens.,https://www.nationaltrust.org.uk/visit/northern-ireland/mussenden-temple-and-downhill-demesne,Historic houses/mansions,3
133,Florence Court,Enniskillen,County Fermanagh,54.258301,-7.72989,Beautiful 18th-century home set on a sustainable estate and gardens,https://www.nationaltrust.org.uk/visit/northern-ireland/florence-court,Historic houses/mansions,3
149,Gray's Printing Press,Strabane,County Tyrone,54.82549,-7.463395,18th-century printing press,https://www.nationaltrust.org.uk/visit/northern-ireland/grays-printing-press,Castles,4
